{"type": "FeatureCollection", "features": [
{"id":"7f2c7c6f-e4b9-4890-9d87-dd9ca13abf25","type":"Feature","geometry":{"type":"Polygon","coordinates":[[[91.7673624,26.1668045],[91.767246,26.166779],[91.7672759,26.1666691],[91.7673924,26.1666946],[91.7673624,26.1668045]]]},"properties":{"sources":[{"property":"","dataset":"Microsoft ML Buildings","license":"ODbL-1.0","record_id":null,"update_time":"2018-12-09T00:00:00.000Z","confidence":null,"between":null,"provider":"microsoft","resource":"ml_buildings","version":"2025-02-25"}],"is_underground":false,"has_parts":false,"version":3}},
{"id":"15f91a36-9b2f-4098-a71e-972a71c16b3c","type":"Feature","geometry":{"type":"Polygon","coordinates":[[[91.767462,26.1665541],[91.7674983,26.1665875],[91.7674252,26.1666523],[91.7673889,26.1666188],[91.767462,26.1665541]]]},"properties":{"sources":[{"property":"","dataset":"Google Open Buildings","license":null,"record_id":"7MRH5Q88+JXW2","update_time":"2023-05-01T00:00:00.000Z","confidence":0.7047,"between":null,"provider":"google","resource":"open_buildings","version":"2024-04-16"}],"is_underground":false,"has_parts":false,"version":1}},
{"id":"419aafb6-39bd-4860-ab12-dd86dd428b80","type":"Feature","geometry":{"type":"Polygon","coordinates":[[[91.7672954,26.1663869],[91.7674282,26.166504],[91.7673545,26.166572],[91.7672218,26.1664549],[91.7672954,26.1663869]]]},"properties":{"sources":[{"property":"","dataset":"Google Open Buildings","license":null,"record_id":"7MRH5Q88+HWW3","update_time":"2023-05-01T00:00:00.000Z","confidence":0.8991,"between":null,"provider":"google","resource":"open_buildings","version":"2024-04-16"}],"is_underground":false,"has_parts":false,"version":1}},
{"id":"014f6446-8ead-4057-b261-bdbeb5132c45","type":"Feature","geometry":{"type":"Polygon","coordinates":[[[91.7673607,26.16632],[91.7675569,26.1664981],[91.7675029,26.1665466],[91.7673067,26.1663685],[91.7673607,26.16632]]]},"properties":{"sources":[{"property":"","dataset":"Google Open Buildings","license":null,"record_id":"7MRH5Q88+HXF9","update_time":"2023-05-01T00:00:00.000Z","confidence":0.782,"between":null,"provider":"google","resource":"open_buildings","version":"2024-04-16"}],"is_underground":false,"has_parts":false,"version":1}},
{"id":"b3f73f88-95a4-48f9-b901-670daba74778","type":"Feature","geometry":{"type":"Polygon","coordinates":[[[91.7674751,26.1662977],[91.7675468,26.1663627],[91.7674768,26.1664254],[91.7674052,26.1663604],[91.7674751,26.1662977]]]},"properties":{"sources":[{"property":"","dataset":"Google Open Buildings","license":null,"record_id":"7MRH5Q88+GXXC","update_time":"2023-05-01T00:00:00.000Z","confidence":0.675,"between":null,"provider":"google","resource":"open_buildings","version":"2024-04-16"}],"is_underground":false,"has_parts":false,"version":1}},
{"id":"6e5b2a4a-e576-4a1f-8475-62e8cacdfa68","type":"Feature","geometry":{"type":"Polygon","coordinates":[[[91.7675425,26.1662373],[91.7674894,26.1662849],[91.7674566,26.1662551],[91.7675096,26.1662075],[91.7675425,26.1662373]]]},"properties":{"sources":[{"property":"","dataset":"Google Open Buildings","license":null,"record_id":"7MRH5Q88+FXXX","update_time":"2023-05-01T00:00:00.000Z","confidence":0.7383,"between":null,"provider":"google","resource":"open_buildings","version":"2024-04-16"}],"is_underground":false,"has_parts":false,"version":1}},
{"id":"de526f25-5ada-46b3-a93b-b8ab246be044","type":"Feature","geometry":{"type":"Polygon","coordinates":[[[91.7673314,26.1658969],[91.7672196,26.1659943],[91.7671683,26.1659463],[91.7672503,26.1658749],[91.7672784,26.1659011],[91.7673082,26.1658752],[91.7673314,26.1658969]]]},"properties":{"sources":[{"property":"","dataset":"Google Open Buildings","license":null,"record_id":"7MRH5Q88+9VH5","update_time":"2023-05-01T00:00:00.000Z","confidence":0.7472,"between":null,"provider":"google","resource":"open_buildings","version":"2024-04-16"}],"is_underground":false,"has_parts":false,"version":1}},
{"id":"64ab2493-5dfc-4452-b362-7b10a531f251","type":"Feature","geometry":{"type":"Polygon","coordinates":[[[91.7673404,26.1657963],[91.7673964,26.1658486],[91.767336,26.1659012],[91.7672801,26.1658489],[91.7673404,26.1657963]]]},"properties":{"sources":[{"property":"","dataset":"Google Open Buildings","license":null,"record_id":"7MRH5Q88+8WPX","update_time":"2023-05-01T00:00:00.000Z","confidence":0.7442,"between":null,"provider":"google","resource":"open_buildings","version":"2024-04-16"}],"is_underground":false,"has_parts":false,"version":1}},
{"id":"4478c560-9d73-40be-a783-70ae9ce38f74","type":"Feature","geometry":{"type":"Polygon","coordinates":[[[91.7674056,26.1657395],[91.7674615,26.1657918],[91.7673964,26.1658486],[91.7673404,26.1657963],[91.7674056,26.1657395]]]},"properties":{"sources":[{"property":"","dataset":"Google Open Buildings","license":null,"record_id":"7MRH5Q88+8X6Q","update_time":"2023-05-01T00:00:00.000Z","confidence":0.7811,"between":null,"provider":"google","resource":"open_buildings","version":"2024-04-16"}],"is_underground":false,"has_parts":false,"version":1}},
{"id":"c95931c6-fc2a-4d60-936f-2ae0485c8ff8","type":"Feature","geometry":{"type":"Polygon","coordinates":[[[91.7675332,26.1662398],[91.7675982,26.1662986],[91.7675425,26.1663487],[91.7674776,26.1662899],[91.7675332,26.1662398]]]},"properties":{"sources":[{"property":"","dataset":"Google Open Buildings","license":null,"record_id":"7MRH5Q89+G27J","update_time":"2023-05-01T00:00:00.000Z","confidence":0.7474,"between":null,"provider":"google","resource":"open_buildings","version":"2024-04-16"}],"is_underground":false,"has_parts":false,"version":1}},
{"id":"a69f05cb-c145-43ec-8f99-2fad820d51ef","type":"Feature","geometry":{"type":"Polygon","coordinates":[[[91.7675923,26.166321],[91.7676211,26.1663471],[91.767643,26.1663274],[91.7676954,26.1663748],[91.7676413,26.1664234],[91.7675602,26.1663498],[91.7675923,26.166321]]]},"properties":{"sources":[{"property":"","dataset":"Google Open Buildings","license":null,"record_id":"7MRH5Q89+G3RJ","update_time":"2023-05-01T00:00:00.000Z","confidence":0.8022,"between":null,"provider":"google","resource":"open_buildings","version":"2024-04-16"}],"is_underground":false,"has_parts":false,"version":1}},
{"id":"89da3b51-d4b9-47d2-84c7-f8f61b86a5e2","type":"Feature","geometry":{"type":"Polygon","coordinates":[[[91.7679437,26.1662425],[91.7681394,26.1664321],[91.7680745,26.1664866],[91.7678788,26.166297],[91.7679437,26.1662425]]]},"properties":{"sources":[{"property":"","dataset":"Google Open Buildings","license":null,"record_id":"7MRH5Q89+G6RF","update_time":"2023-05-01T00:00:00.000Z","confidence":0.7804,"between":null,"provider":"google","resource":"open_buildings","version":"2024-04-16"}],"is_underground":false,"has_parts":false,"version":1}},
{"id":"a7049b97-0fad-4e0a-93ae-03ffe9241de2","type":"Feature","geometry":{"type":"Polygon","coordinates":[[[91.7679907,26.1658319],[91.7680575,26.1658887],[91.7680179,26.1659266],[91.7679511,26.1658699],[91.7679907,26.1658319]]]},"properties":{"sources":[{"property":"","dataset":"Google Open Buildings","license":null,"record_id":"7MRH5Q89+9622","update_time":"2023-05-01T00:00:00.000Z","confidence":0.7749,"between":null,"provider":"google","resource":"open_buildings","version":"2024-04-16"}],"is_underground":false,"has_parts":false,"version":1}},
{"id":"24365978-5783-4f90-8b8d-149cdafc6757","type":"Feature","geometry":{"type":"Polygon","coordinates":[[[91.7681306,26.1658187],[91.7681666,26.1658493],[91.7680935,26.1659193],[91.7680575,26.1658887],[91.7681306,26.1658187]]]},"properties":{"sources":[{"property":"","dataset":"Google Open Buildings","license":null,"record_id":"7MRH5Q89+86XP","update_time":"2023-05-01T00:00:00.000Z","confidence":0.7232,"between":null,"provider":"google","resource":"open_buildings","version":"2024-04-16"}],"is_underground":false,"has_parts":false,"version":1}},
{"id":"46db7d67-46f2-4027-a6ea-08e6af722898","type":"Feature","geometry":{"type":"Polygon","coordinates":[[[91.768361,26.1658572],[91.7684345,26.1659478],[91.7682971,26.1660384],[91.7682327,26.1659589],[91.7682716,26.1659332],[91.7682625,26.1659221],[91.768361,26.1658572]]]},"properties":{"sources":[{"property":"","dataset":"Google Open Buildings","license":null,"record_id":"7MRH5Q89+98GW","update_time":"2023-05-01T00:00:00.000Z","confidence":0.7734,"between":null,"provider":"google","resource":"open_buildings","version":"2024-04-16"}],"is_underground":false,"has_parts":false,"version":1}},
{"id":"ef1fe9a0-e2ac-4e2e-aab7-79b6ab3cb317","type":"Feature","geometry":{"type":"Polygon","coordinates":[[[91.7684103,26.1661241],[91.7685002,26.1662438],[91.7683971,26.166307],[91.7683071,26.1661873],[91.7684103,26.1661241]]]},"properties":{"sources":[{"property":"","dataset":"Google Open Buildings","license":null,"record_id":"7MRH5Q89+F9JQ","update_time":"2023-05-01T00:00:00.000Z","confidence":0.8537,"between":null,"provider":"google","resource":"open_buildings","version":"2024-04-16"}],"is_underground":false,"has_parts":false,"version":1}},
{"id":"c1a26f88-086a-4a86-adce-d51abe25f912","type":"Feature","geometry":{"type":"Polygon","coordinates":[[[91.7683092,26.1664056],[91.7683383,26.1664759],[91.7682478,26.1665064],[91.7682187,26.1664362],[91.7683092,26.1664056]]]},"properties":{"sources":[{"property":"","dataset":"Google Open Buildings","license":null,"record_id":"7MRH5Q89+H8J9","update_time":"2023-05-01T00:00:00.000Z","confidence":0.7658,"between":null,"provider":"google","resource":"open_buildings","version":"2024-04-16"}],"is_underground":false,"has_parts":false,"version":1}},
{"id":"12171181-dcd1-42ed-9084-4bb93fb9e66d","type":"Feature","geometry":{"type":"Polygon","coordinates":[[[91.7680422,26.166878],[91.7681191,26.1669963],[91.7680326,26.1670422],[91.7679556,26.1669239],[91.7680422,26.166878]]]},"properties":{"sources":[{"property":"","dataset":"Google Open Buildings","license":null,"record_id":"7MRH5Q89+Q6MC","update_time":"2023-05-01T00:00:00.000Z","confidence":0.8462,"between":null,"provider":"google","resource":"open_buildings","version":"2024-04-16"}],"is_underground":false,"has_parts":false,"version":1}},
{"id":"946d383d-ca82-4968-b3c7-678b10094c23","type":"Feature","geometry":{"type":"Polygon","coordinates":[[[91.7683555,26.1665172],[91.7684328,26.1667037],[91.7680882,26.1668201],[91.7680109,26.1666335],[91.7683555,26.1665172]]]},"properties":{"sources":[{"property":"","dataset":"Google Open Buildings","license":null,"record_id":"7MRH5Q89+M79J","update_time":"2023-05-01T00:00:00.000Z","confidence":0.9278,"between":null,"provider":"google","resource":"open_buildings","version":"2024-04-16"}],"is_underground":false,"has_parts":false,"version":1}},
{"id":"afc2c141-43c3-4d26-abbc-ffbc062495dd","type":"Feature","geometry":{"type":"Polygon","coordinates":[[[91.7676046,26.1664648],[91.7676467,26.1664918],[91.7676219,26.1665233],[91.7675798,26.1664963],[91.7676046,26.1664648]]]},"properties":{"sources":[{"property":"","dataset":"Google Open Buildings","license":null,"record_id":"7MRH5Q89+H2XP","update_time":"2023-05-01T00:00:00.000Z","confidence":0.7078,"between":null,"provider":"google","resource":"open_buildings","version":"2024-04-16"}],"is_underground":false,"has_parts":false,"version":1}},
{"id":"8375ce7a-f26c-4263-85b5-79a2d2875d7e","type":"Feature","geometry":{"type":"Polygon","coordinates":[[[91.7676014,26.1666568],[91.7675277,26.1667248],[91.7674775,26.1666805],[91.7675512,26.1666125],[91.7676014,26.1666568]]]},"properties":{"sources":[{"property":"","dataset":"Google Open Buildings","license":null,"record_id":"7MRH5Q89+M27M","update_time":"2023-05-01T00:00:00.000Z","confidence":0.8232,"between":null,"provider":"google","resource":"open_buildings","version":"2024-04-16"}],"is_underground":false,"has_parts":false,"version":1}},
{"id":"d8b14b91-b8a3-4efe-8947-deeb3f4be454","type":"Feature","geometry":{"type":"Polygon","coordinates":[[[91.7674973,26.16683],[91.7675768,26.1667718],[91.7676412,26.1668426],[91.7675617,26.1669008],[91.7674973,26.16683]]]},"properties":{"sources":[{"property":"","dataset":"Microsoft ML Buildings","license":"ODbL-1.0","record_id":null,"update_time":"2018-12-09T00:00:00.000Z","confidence":null,"between":null,"provider":"microsoft","resource":"ml_buildings","version":"2025-02-25"}],"is_underground":false,"has_parts":false,"version":3}},
{"id":"855b8121-dec1-4303-b03c-dd7f242d50ed","type":"Feature","geometry":{"type":"Polygon","coordinates":[[[91.767621,26.1667045],[91.7677326,26.1667872],[91.7676809,26.166844],[91.7676316,26.1668075],[91.767646,26.1667916],[91.7675837,26.1667454],[91.767621,26.1667045]]]},"properties":{"sources":[{"property":"","dataset":"Google Open Buildings","license":null,"record_id":"7MRH5Q89+P33R","update_time":"2023-05-01T00:00:00.000Z","confidence":0.8964,"between":null,"provider":"google","resource":"open_buildings","version":"2024-04-16"}],"is_underground":false,"has_parts":false,"version":1}},
{"id":"7903c22f-c69e-4d1b-9695-50d92a47c84c","type":"Feature","geometry":{"type":"Polygon","coordinates":[[[91.7683303,26.1656275],[91.7684543,26.1657329],[91.7684177,26.165768],[91.7684374,26.1657848],[91.768387,26.165833],[91.7683673,26.1658162],[91.7683458,26.1658368],[91.7683036,26.165801],[91.7683251,26.1657804],[91.7682433,26.1657108],[91.7683303,26.1656275]]]},"properties":{"sources":[{"property":"","dataset":"Google Open Buildings","license":null,"record_id":"7MRH5Q89+78X7","update_time":"2023-05-01T00:00:00.000Z","confidence":0.8373,"between":null,"provider":"google","resource":"open_buildings","version":"2024-04-16"}],"is_underground":false,"has_parts":false,"version":1}}]}