{
  "type": "FeatureCollection",
  "generator": "overpass-turbo",
  "copyright": "The data included in this document is from www.openstreetmap.org. The data is made available under ODbL.",
  "timestamp": "2026-09-03T11:17:36Z",
  "features": [
    {
      "type": "Feature",
      "properties": {
        "@id": "way/517478725",
        "building": "yes"
      },
      "geometry": {
        "type": "Polygon",
        "coordinates": [
          [
            [
              91.7684377,
              26.1638325
            ],
            [
              91.7682276,
              26.1634552
            ],
            [
              91.7681715,
              26.1632813
            ],
            [
              91.7686082,
              26.1631367
            ],
            [
              91.7686946,
              26.163296
            ],
            [
              91.7684097,
              26.163407
            ],
            [
              91.7684774,
              26.1634909
            ],
            [
              91.7686245,
              26.1637256
            ],
            [
              91.7684377,
              26.1638325
            ]
          ]
        ]
      },
      "id": "way/517478725"
    },
    {
      "type": "Feature",
      "properties": {
        "@id": "way/738284704",
        "building": "yes"
      },
      "geometry": {
        "type": "Polygon",
        "coordinates": [
          [
            [
              91.7688565,
              26.1660042
            ],
            [
              91.7688128,
              26.16591
            ],
            [
              91.7692352,
              26.1657523
            ],
            [
              91.7692789,
              26.1658466
            ],
            [
              91.7688565,
              26.1660042
            ]
          ]
        ]
      },
      "id": "way/738284704"
    },
    {
      "type": "Feature",
      "properties": {
        "@id": "way/806033506",
        "building": "yes"
      },
      "geometry": {
        "type": "Polygon",
        "coordinates": [
          [
            [
              91.7669341,
              26.166735
            ],
            [
              91.7669649,
              26.16666
            ],
            [
              91.7671528,
              26.1667222
            ],
            [
              91.7671221,
              26.1667971
            ],
            [
              91.7669341,
              26.166735
            ]
          ]
        ]
      },
      "id": "way/806033506"
    },
    {
      "type": "Feature",
      "properties": {
        "@id": "way/806033521",
        "building": "yes"
      },
      "geometry": {
        "type": "Polygon",
        "coordinates": [
          [
            [
              91.7661206,
              26.1667433
            ],
            [
              91.7663446,
              26.166517
            ],
            [
              91.7664476,
              26.1665991
            ],
            [
              91.7662236,
              26.1668254
            ],
            [
              91.7661206,
              26.1667433
            ]
          ]
        ]
      },
      "id": "way/806033521"
    },
    {
      "type": "Feature",
      "properties": {
        "@id": "way/806033560",
        "building": "yes"
      },
      "geometry": {
        "type": "Polygon",
        "coordinates": [
          [
            [
              91.7684837,
              26.1683767
            ],
            [
              91.7685762,
              26.168361
            ],
            [
              91.76859,
              26.1684266
            ],
            [
              91.7684974,
              26.1684423
            ],
            [
              91.7684837,
              26.1683767
            ]
          ]
        ]
      },
      "id": "way/806033560"
    },
    {
      "type": "Feature",
      "properties": {
        "@id": "way/806033570",
        "building": "yes"
      },
      "geometry": {
        "type": "Polygon",
        "coordinates": [
          [
            [
              91.7656164,
              26.167055
            ],
            [
              91.7657089,
              26.1669624
            ],
            [
              91.7658748,
              26.1670957
            ],
            [
              91.7657822,
              26.1671884
            ],
            [
              91.7656164,
              26.167055
            ]
          ]
        ]
      },
      "id": "way/806033570"
    },
    {
      "type": "Feature",
      "properties": {
        "@id": "way/806033571",
        "building": "yes"
      },
      "geometry": {
        "type": "Polygon",
        "coordinates": [
          [
            [
              91.769232,
              26.1679373
            ],
            [
              91.7693822,
              26.1678723
            ],
            [
              91.7694273,
              26.1679562
            ],
            [
              91.7692771,
              26.1680212
            ],
            [
              91.769232,
              26.1679373
            ]
          ]
        ]
      },
      "id": "way/806033571"
    },
    {
      "type": "Feature",
      "properties": {
        "@id": "way/806033572",
        "building": "yes"
      },
      "geometry": {
        "type": "Polygon",
        "coordinates": [
          [
            [
              91.7692803,
              26.1680685
            ],
            [
              91.7694747,
              26.1679903
            ],
            [
              91.7695057,
              26.1680523
            ],
            [
              91.7693113,
              26.1681305
            ],
            [
              91.7692803,
              26.1680685
            ]
          ]
        ]
      },
      "id": "way/806033572"
    },
    {
      "type": "Feature",
      "properties": {
        "@id": "way/806033589",
        "building": "yes"
      },
      "geometry": {
        "type": "Polygon",
        "coordinates": [
          [
            [
              91.7685306,
              26.166505
            ],
            [
              91.7687184,
              26.1664051
            ],
            [
              91.768771,
              26.1664848
            ],
            [
              91.7685833,
              26.1665847
            ],
            [
              91.7685306,
              26.166505
            ]
          ]
        ]
      },
      "id": "way/806033589"
    },
    {
      "type": "Feature",
      "properties": {
        "@id": "way/806033597",
        "building": "yes"
      },
      "geometry": {
        "type": "Polygon",
        "coordinates": [
          [
            [
              91.7689209,
              26.1675197
            ],
            [
              91.7691301,
              26.1674414
            ],
            [
              91.7691756,
              26.1675395
            ],
            [
              91.7689664,
              26.1676178
            ],
            [
              91.7689209,
              26.1675197
            ]
          ]
        ]
      },
      "id": "way/806033597"
    },
    {
      "type": "Feature",
      "properties": {
        "@id": "way/806033602",
        "building": "yes"
      },
      "geometry": {
        "type": "Polygon",
        "coordinates": [
          [
            [
              91.7656325,
              26.1678133
            ],
            [
              91.7658323,
              26.1676509
            ],
            [
              91.7659426,
              26.1677601
            ],
            [
              91.7657428,
              26.1679226
            ],
            [
              91.7656325,
              26.1678133
            ]
          ]
        ]
      },
      "id": "way/806033602"
    },
    {
      "type": "Feature",
      "properties": {
        "@id": "way/1334976147",
        "building": "apartments"
      },
      "geometry": {
        "type": "Polygon",
        "coordinates": [
          [
            [
              91.7690771,
              26.164161
            ],
            [
              91.768839,
              26.1639347
            ],
            [
              91.7690118,
              26.1637921
            ],
            [
              91.7692453,
              26.164052
            ],
            [
              91.7690771,
              26.164161
            ]
          ]
        ]
      },
      "id": "way/1334976147"
    },
    {
      "type": "Feature",
      "properties": {
        "@id": "way/1433579601",
        "amenity": "fast_food",
        "building": "yes",
        "cuisine": "burger;regional;chicken",
        "name": "J14 Hub"
      },
      "geometry": {
        "type": "Polygon",
        "coordinates": [
          [
            [
              91.7668713,
              26.1668562
            ],
            [
              91.7668998,
              26.1668165
            ],
            [
              91.7669653,
              26.1668427
            ],
            [
              91.7669396,
              26.1668668
            ],
            [
              91.7668713,
              26.1668562
            ]
          ]
        ]
      },
      "id": "way/1433579601"
    }
  ]
}