{
"type": "FeatureCollection",
"name": "floors",
"crs": { "type": "name", "properties": { "name": "urn:ogc:def:crs:OGC:1.3:CRS84" } },
"features": [
{ "type": "Feature", "properties": { "floor_id": "B001_F01", "building_id": "B001", "parcel_id": "P001", "floor_number": 1, "floor_type": "STANDARD", "floor_height_m": 3.0, "z_min": 0.0, "z_max": 3.0 }, "geometry": { "type": "Polygon", "coordinates": [ [ [ 93.000602531040315, 26.581374583887634 ], [ 93.001707171280586, 26.581374574929772 ], [ 93.001707192703634, 26.582819235460271 ], [ 93.000602538601399, 26.582819244418694 ], [ 93.000602531040315, 26.581374583887634 ] ] ] } },
{ "type": "Feature", "properties": { "floor_id": "B001_F02", "building_id": "B001", "parcel_id": "P001", "floor_number": 2, "floor_type": "STANDARD", "floor_height_m": 3.0, "z_min": 3.0, "z_max": 6.0 }, "geometry": { "type": "Polygon", "coordinates": [ [ [ 93.000602531040315, 26.581374583887634 ], [ 93.001707171280586, 26.581374574929772 ], [ 93.001707192703634, 26.582819235460271 ], [ 93.000602538601399, 26.582819244418694 ], [ 93.000602531040315, 26.581374583887634 ] ] ] } },
{ "type": "Feature", "properties": { "floor_id": "B001_F03", "building_id": "B001", "parcel_id": "P001", "floor_number": 3, "floor_type": "STANDARD", "floor_height_m": 3.0, "z_min": 6.0, "z_max": 9.0 }, "geometry": { "type": "Polygon", "coordinates": [ [ [ 93.000602531040315, 26.581374583887634 ], [ 93.001707171280586, 26.581374574929772 ], [ 93.001707192703634, 26.582819235460271 ], [ 93.000602538601399, 26.582819244418694 ], [ 93.000602531040315, 26.581374583887634 ] ] ] } },
{ "type": "Feature", "properties": { "floor_id": "B001_F04", "building_id": "B001", "parcel_id": "P001", "floor_number": 4, "floor_type": "STANDARD", "floor_height_m": 3.0, "z_min": 9.0, "z_max": 12.0 }, "geometry": { "type": "Polygon", "coordinates": [ [ [ 93.000602531040315, 26.581374583887634 ], [ 93.001707171280586, 26.581374574929772 ], [ 93.001707192703634, 26.582819235460271 ], [ 93.000602538601399, 26.582819244418694 ], [ 93.000602531040315, 26.581374583887634 ] ] ] } },
{ "type": "Feature", "properties": { "floor_id": "B001_F05", "building_id": "B001", "parcel_id": "P001", "floor_number": 5, "floor_type": "STANDARD", "floor_height_m": 3.0, "z_min": 12.0, "z_max": 15.0 }, "geometry": { "type": "Polygon", "coordinates": [ [ [ 93.000602531040315, 26.581374583887634 ], [ 93.001707171280586, 26.581374574929772 ], [ 93.001707192703634, 26.582819235460271 ], [ 93.000602538601399, 26.582819244418694 ], [ 93.000602531040315, 26.581374583887634 ] ] ] } },
{ "type": "Feature", "properties": { "floor_id": "B002_F01", "building_id": "B002", "parcel_id": "P002", "floor_number": 1, "floor_type": "STANDARD", "floor_height_m": 3.6, "z_min": 0.0, "z_max": 3.6 }, "geometry": { "type": "Polygon", "coordinates": [ [ [ 93.002510546000337, 26.581374563033169 ], [ 93.003615186238974, 26.581374539275359 ], [ 93.003615231605451, 26.58281919980362 ], [ 93.002510577504822, 26.582819223562922 ], [ 93.002510546000337, 26.581374563033169 ] ] ] } },
{ "type": "Feature", "properties": { "floor_id": "B002_F02", "building_id": "B002", "parcel_id": "P002", "floor_number": 2, "floor_type": "STANDARD", "floor_height_m": 3.6, "z_min": 3.6, "z_max": 7.2 }, "geometry": { "type": "Polygon", "coordinates": [ [ [ 93.002510546000337, 26.581374563033169 ], [ 93.003615186238974, 26.581374539275359 ], [ 93.003615231605451, 26.58281919980362 ], [ 93.002510577504822, 26.582819223562922 ], [ 93.002510546000337, 26.581374563033169 ] ] ] } },
{ "type": "Feature", "properties": { "floor_id": "B002_F03", "building_id": "B002", "parcel_id": "P002", "floor_number": 3, "floor_type": "STANDARD", "floor_height_m": 3.6, "z_min": 7.2, "z_max": 10.8 }, "geometry": { "type": "Polygon", "coordinates": [ [ [ 93.002510546000337, 26.581374563033169 ], [ 93.003615186238974, 26.581374539275359 ], [ 93.003615231605451, 26.58281919980362 ], [ 93.002510577504822, 26.582819223562922 ], [ 93.002510546000337, 26.581374563033169 ] ] ] } },
{ "type": "Feature", "properties": { "floor_id": "B002_F04", "building_id": "B002", "parcel_id": "P002", "floor_number": 4, "floor_type": "STANDARD", "floor_height_m": 3.6, "z_min": 10.8, "z_max": 14.4 }, "geometry": { "type": "Polygon", "coordinates": [ [ [ 93.002510546000337, 26.581374563033169 ], [ 93.003615186238974, 26.581374539275359 ], [ 93.003615231605451, 26.58281919980362 ], [ 93.002510577504822, 26.582819223562922 ], [ 93.002510546000337, 26.581374563033169 ] ] ] } },
{ "type": "Feature", "properties": { "floor_id": "B002_F05", "building_id": "B002", "parcel_id": "P002", "floor_number": 5, "floor_type": "STANDARD", "floor_height_m": 3.6, "z_min": 14.4, "z_max": 18.0 }, "geometry": { "type": "Polygon", "coordinates": [ [ [ 93.002510546000337, 26.581374563033169 ], [ 93.003615186238974, 26.581374539275359 ], [ 93.003615231605451, 26.58281919980362 ], [ 93.002510577504822, 26.582819223562922 ], [ 93.002510546000337, 26.581374563033169 ] ] ] } },
{ "type": "Feature", "properties": { "floor_id": "B003_F01", "building_id": "B003", "parcel_id": "P003", "floor_number": 1, "floor_type": "STANDARD", "floor_height_m": 4.2, "z_min": 0.0, "z_max": 4.2 }, "geometry": { "type": "Polygon", "coordinates": [ [ [ 93.004418560957006, 26.581374516615163 ], [ 93.005523201192531, 26.581374478057413 ], [ 93.005523270502422, 26.582819138581833 ], [ 93.004418616404905, 26.582819177141999 ], [ 93.004418560957006, 26.581374516615163 ] ] ] } },
{ "type": "Feature", "properties": { "floor_id": "B003_F02", "building_id": "B003", "parcel_id": "P003", "floor_number": 2, "floor_type": "STANDARD", "floor_height_m": 4.2, "z_min": 4.2, "z_max": 8.4 }, "geometry": { "type": "Polygon", "coordinates": [ [ [ 93.004418560957006, 26.581374516615163 ], [ 93.005523201192531, 26.581374478057413 ], [ 93.005523270502422, 26.582819138581833 ], [ 93.004418616404905, 26.582819177141999 ], [ 93.004418560957006, 26.581374516615163 ] ] ] } },
{ "type": "Feature", "properties": { "floor_id": "B003_F03", "building_id": "B003", "parcel_id": "P003", "floor_number": 3, "floor_type": "STANDARD", "floor_height_m": 4.2, "z_min": 8.4, "z_max": 12.6 }, "geometry": { "type": "Polygon", "coordinates": [ [ [ 93.004418560957006, 26.581374516615163 ], [ 93.005523201192531, 26.581374478057413 ], [ 93.005523270502422, 26.582819138581833 ], [ 93.004418616404905, 26.582819177141999 ], [ 93.004418560957006, 26.581374516615163 ] ] ] } },
{ "type": "Feature", "properties": { "floor_id": "B003_F04", "building_id": "B003", "parcel_id": "P003", "floor_number": 4, "floor_type": "STANDARD", "floor_height_m": 4.2, "z_min": 12.6, "z_max": 16.8 }, "geometry": { "type": "Polygon", "coordinates": [ [ [ 93.004418560957006, 26.581374516615163 ], [ 93.005523201192531, 26.581374478057413 ], [ 93.005523270502422, 26.582819138581833 ], [ 93.004418616404905, 26.582819177141999 ], [ 93.004418560957006, 26.581374516615163 ] ] ] } },
{ "type": "Feature", "properties": { "floor_id": "B003_F05", "building_id": "B003", "parcel_id": "P003", "floor_number": 5, "floor_type": "STANDARD", "floor_height_m": 4.2, "z_min": 16.8, "z_max": 21.0 }, "geometry": { "type": "Polygon", "coordinates": [ [ [ 93.004418560957006, 26.581374516615163 ], [ 93.005523201192531, 26.581374478057413 ], [ 93.005523270502422, 26.582819138581833 ], [ 93.004418616404905, 26.582819177141999 ], [ 93.004418560957006, 26.581374516615163 ] ] ] } },
{ "type": "Feature", "properties": { "floor_id": "B002_B01", "building_id": "B002", "parcel_id": "P002", "floor_number": 0, "floor_type": "BASEMENT", "floor_height_m": 3.0, "z_min": -3.0, "z_max": 0.0 }, "geometry": { "type": "Polygon", "coordinates": [ [ [ 93.002510546000337, 26.581374563033169 ], [ 93.003615186238974, 26.581374539275359 ], [ 93.003615231605451, 26.58281919980362 ], [ 93.002510577504822, 26.582819223562922 ], [ 93.002510546000337, 26.581374563033169 ] ] ] } }
]
}
