{
"type": "FeatureCollection",
"name": "property_units",
"crs": { "type": "name", "properties": { "name": "urn:ogc:def:crs:OGC:1.3:CRS84" } },
"features": [
{ "type": "Feature", "properties": { "unit_id": "B001_F01_U0101", "building_id": "B001", "parcel_id": "P001", "floor_id": "B001_F01", "floor_number": 1, "unit_number": 101, "unit_index": 1, "unit_type": "PROPERTY_UNIT", "z_min": 0.0, "z_max": 3.0, "height_m": 3.0, "area_m2": 7040.0, "volume_m3": 21120.0 }, "geometry": { "type": "Polygon", "coordinates": [ [ [ 93.001044387136474, 26.581374581332696 ], [ 93.000602531040315, 26.581374583887634 ], [ 93.000602538601399, 26.582819244418694 ], [ 93.00104440024235, 26.582819241863589 ], [ 93.001044387136474, 26.581374581332696 ] ] ] } },
{ "type": "Feature", "properties": { "unit_id": "B001_F01_U0102", "building_id": "B001", "parcel_id": "P001", "floor_id": "B001_F01", "floor_number": 1, "unit_number": 102, "unit_index": 2, "unit_type": "PROPERTY_UNIT", "z_min": 0.0, "z_max": 3.0, "height_m": 3.0, "area_m2": 5280.0, "volume_m3": 15840.0 }, "geometry": { "type": "Polygon", "coordinates": [ [ [ 93.00104440024235, 26.582819241863589 ], [ 93.001707192703634, 26.582819235460271 ], [ 93.001707181991904, 26.582096905231666 ], [ 93.001044393689298, 26.582096911634785 ], [ 93.00104440024235, 26.582819241863589 ] ] ] } },
{ "type": "Feature", "properties": { "unit_id": "B001_F01_U0103", "building_id": "B001", "parcel_id": "P001", "floor_id": "B001_F01", "floor_number": 1, "unit_number": 103, "unit_index": 3, "unit_type": "PROPERTY_UNIT", "z_min": 0.0, "z_max": 3.0, "height_m": 3.0, "area_m2": 5280.0, "volume_m3": 15840.0 }, "geometry": { "type": "Polygon", "coordinates": [ [ [ 93.001707181991904, 26.582096905231666 ], [ 93.001707171280586, 26.581374574929772 ], [ 93.001044387136474, 26.581374581332696 ], [ 93.001044393689298, 26.582096911634785 ], [ 93.001707181991904, 26.582096905231666 ] ] ] } },
{ "type": "Feature", "properties": { "unit_id": "B001_F02_U0201", "building_id": "B001", "parcel_id": "P001", "floor_id": "B001_F02", "floor_number": 2, "unit_number": 201, "unit_index": 1, "unit_type": "PROPERTY_UNIT", "z_min": 3.0, "z_max": 6.0, "height_m": 3.0, "area_m2": 7040.0, "volume_m3": 21120.0 }, "geometry": { "type": "Polygon", "coordinates": [ [ [ 93.001044387136474, 26.581374581332696 ], [ 93.000602531040315, 26.581374583887634 ], [ 93.000602538601399, 26.582819244418694 ], [ 93.00104440024235, 26.582819241863589 ], [ 93.001044387136474, 26.581374581332696 ] ] ] } },
{ "type": "Feature", "properties": { "unit_id": "B001_F02_U0202", "building_id": "B001", "parcel_id": "P001", "floor_id": "B001_F02", "floor_number": 2, "unit_number": 202, "unit_index": 2, "unit_type": "PROPERTY_UNIT", "z_min": 3.0, "z_max": 6.0, "height_m": 3.0, "area_m2": 5280.0, "volume_m3": 15840.0 }, "geometry": { "type": "Polygon", "coordinates": [ [ [ 93.00104440024235, 26.582819241863589 ], [ 93.001707192703634, 26.582819235460271 ], [ 93.001707181991904, 26.582096905231666 ], [ 93.001044393689298, 26.582096911634785 ], [ 93.00104440024235, 26.582819241863589 ] ] ] } },
{ "type": "Feature", "properties": { "unit_id": "B001_F02_U0203", "building_id": "B001", "parcel_id": "P001", "floor_id": "B001_F02", "floor_number": 2, "unit_number": 203, "unit_index": 3, "unit_type": "PROPERTY_UNIT", "z_min": 3.0, "z_max": 6.0, "height_m": 3.0, "area_m2": 5280.0, "volume_m3": 15840.0 }, "geometry": { "type": "Polygon", "coordinates": [ [ [ 93.001707181991904, 26.582096905231666 ], [ 93.001707171280586, 26.581374574929772 ], [ 93.001044387136474, 26.581374581332696 ], [ 93.001044393689298, 26.582096911634785 ], [ 93.001707181991904, 26.582096905231666 ] ] ] } },
{ "type": "Feature", "properties": { "unit_id": "B001_F03_U0301", "building_id": "B001", "parcel_id": "P001", "floor_id": "B001_F03", "floor_number": 3, "unit_number": 301, "unit_index": 1, "unit_type": "PROPERTY_UNIT", "z_min": 6.0, "z_max": 9.0, "height_m": 3.0, "area_m2": 7040.0, "volume_m3": 21120.0 }, "geometry": { "type": "Polygon", "coordinates": [ [ [ 93.001044387136474, 26.581374581332696 ], [ 93.000602531040315, 26.581374583887634 ], [ 93.000602538601399, 26.582819244418694 ], [ 93.00104440024235, 26.582819241863589 ], [ 93.001044387136474, 26.581374581332696 ] ] ] } },
{ "type": "Feature", "properties": { "unit_id": "B001_F03_U0302", "building_id": "B001", "parcel_id": "P001", "floor_id": "B001_F03", "floor_number": 3, "unit_number": 302, "unit_index": 2, "unit_type": "PROPERTY_UNIT", "z_min": 6.0, "z_max": 9.0, "height_m": 3.0, "area_m2": 5280.0, "volume_m3": 15840.0 }, "geometry": { "type": "Polygon", "coordinates": [ [ [ 93.00104440024235, 26.582819241863589 ], [ 93.001707192703634, 26.582819235460271 ], [ 93.001707181991904, 26.582096905231666 ], [ 93.001044393689298, 26.582096911634785 ], [ 93.00104440024235, 26.582819241863589 ] ] ] } },
{ "type": "Feature", "properties": { "unit_id": "B001_F03_U0303", "building_id": "B001", "parcel_id": "P001", "floor_id": "B001_F03", "floor_number": 3, "unit_number": 303, "unit_index": 3, "unit_type": "PROPERTY_UNIT", "z_min": 6.0, "z_max": 9.0, "height_m": 3.0, "area_m2": 5280.0, "volume_m3": 15840.0 }, "geometry": { "type": "Polygon", "coordinates": [ [ [ 93.001707181991904, 26.582096905231666 ], [ 93.001707171280586, 26.581374574929772 ], [ 93.001044387136474, 26.581374581332696 ], [ 93.001044393689298, 26.582096911634785 ], [ 93.001707181991904, 26.582096905231666 ] ] ] } },
{ "type": "Feature", "properties": { "unit_id": "B001_F04_U0401", "building_id": "B001", "parcel_id": "P001", "floor_id": "B001_F04", "floor_number": 4, "unit_number": 401, "unit_index": 1, "unit_type": "PROPERTY_UNIT", "z_min": 9.0, "z_max": 12.0, "height_m": 3.0, "area_m2": 7040.0, "volume_m3": 21120.0 }, "geometry": { "type": "Polygon", "coordinates": [ [ [ 93.001044387136474, 26.581374581332696 ], [ 93.000602531040315, 26.581374583887634 ], [ 93.000602538601399, 26.582819244418694 ], [ 93.00104440024235, 26.582819241863589 ], [ 93.001044387136474, 26.581374581332696 ] ] ] } },
{ "type": "Feature", "properties": { "unit_id": "B001_F04_U0402", "building_id": "B001", "parcel_id": "P001", "floor_id": "B001_F04", "floor_number": 4, "unit_number": 402, "unit_index": 2, "unit_type": "PROPERTY_UNIT", "z_min": 9.0, "z_max": 12.0, "height_m": 3.0, "area_m2": 5280.0, "volume_m3": 15840.0 }, "geometry": { "type": "Polygon", "coordinates": [ [ [ 93.00104440024235, 26.582819241863589 ], [ 93.001707192703634, 26.582819235460271 ], [ 93.001707181991904, 26.582096905231666 ], [ 93.001044393689298, 26.582096911634785 ], [ 93.00104440024235, 26.582819241863589 ] ] ] } },
{ "type": "Feature", "properties": { "unit_id": "B001_F04_U0403", "building_id": "B001", "parcel_id": "P001", "floor_id": "B001_F04", "floor_number": 4, "unit_number": 403, "unit_index": 3, "unit_type": "PROPERTY_UNIT", "z_min": 9.0, "z_max": 12.0, "height_m": 3.0, "area_m2": 5280.0, "volume_m3": 15840.0 }, "geometry": { "type": "Polygon", "coordinates": [ [ [ 93.001707181991904, 26.582096905231666 ], [ 93.001707171280586, 26.581374574929772 ], [ 93.001044387136474, 26.581374581332696 ], [ 93.001044393689298, 26.582096911634785 ], [ 93.001707181991904, 26.582096905231666 ] ] ] } },
{ "type": "Feature", "properties": { "unit_id": "B001_F05_U0501", "building_id": "B001", "parcel_id": "P001", "floor_id": "B001_F05", "floor_number": 5, "unit_number": 501, "unit_index": 1, "unit_type": "PROPERTY_UNIT", "z_min": 12.0, "z_max": 15.0, "height_m": 3.0, "area_m2": 7040.0, "volume_m3": 21120.0 }, "geometry": { "type": "Polygon", "coordinates": [ [ [ 93.001044387136474, 26.581374581332696 ], [ 93.000602531040315, 26.581374583887634 ], [ 93.000602538601399, 26.582819244418694 ], [ 93.00104440024235, 26.582819241863589 ], [ 93.001044387136474, 26.581374581332696 ] ] ] } },
{ "type": "Feature", "properties": { "unit_id": "B001_F05_U0502", "building_id": "B001", "parcel_id": "P001", "floor_id": "B001_F05", "floor_number": 5, "unit_number": 502, "unit_index": 2, "unit_type": "PROPERTY_UNIT", "z_min": 12.0, "z_max": 15.0, "height_m": 3.0, "area_m2": 5280.0, "volume_m3": 15840.0 }, "geometry": { "type": "Polygon", "coordinates": [ [ [ 93.00104440024235, 26.582819241863589 ], [ 93.001707192703634, 26.582819235460271 ], [ 93.001707181991904, 26.582096905231666 ], [ 93.001044393689298, 26.582096911634785 ], [ 93.00104440024235, 26.582819241863589 ] ] ] } },
{ "type": "Feature", "properties": { "unit_id": "B001_F05_U0503", "building_id": "B001", "parcel_id": "P001", "floor_id": "B001_F05", "floor_number": 5, "unit_number": 503, "unit_index": 3, "unit_type": "PROPERTY_UNIT", "z_min": 12.0, "z_max": 15.0, "height_m": 3.0, "area_m2": 5280.0, "volume_m3": 15840.0 }, "geometry": { "type": "Polygon", "coordinates": [ [ [ 93.001707181991904, 26.582096905231666 ], [ 93.001707171280586, 26.581374574929772 ], [ 93.001044387136474, 26.581374581332696 ], [ 93.001044393689298, 26.582096911634785 ], [ 93.001707181991904, 26.582096905231666 ] ] ] } },
{ "type": "Feature", "properties": { "unit_id": "B002_F01_U0101", "building_id": "B002", "parcel_id": "P002", "floor_id": "B002_F01", "floor_number": 1, "unit_number": 101, "unit_index": 1, "unit_type": "PROPERTY_UNIT", "z_min": 0.0, "z_max": 3.6, "height_m": 3.6, "area_m2": 7040.0, "volume_m3": 25344.0 }, "geometry": { "type": "Polygon", "coordinates": [ [ [ 93.002952402095943, 26.581374554558248 ], [ 93.002510546000337, 26.581374563033169 ], [ 93.002510577504822, 26.582819223562922 ], [ 93.002952439145233, 26.582819215087472 ], [ 93.002952402095943, 26.581374554558248 ] ] ] } },
{ "type": "Feature", "properties": { "unit_id": "B002_F01_U0102", "building_id": "B002", "parcel_id": "P002", "floor_id": "B002_F01", "floor_number": 1, "unit_number": 102, "unit_index": 2, "unit_type": "PROPERTY_UNIT", "z_min": 0.0, "z_max": 3.6, "height_m": 3.6, "area_m2": 5280.0, "volume_m3": 19008.0 }, "geometry": { "type": "Polygon", "coordinates": [ [ [ 93.002952439145233, 26.582819215087472 ], [ 93.003615231605451, 26.58281919980362 ], [ 93.003615208921786, 26.582096869576137 ], [ 93.002952420620232, 26.582096884859507 ], [ 93.002952439145233, 26.582819215087472 ] ] ] } },
{ "type": "Feature", "properties": { "unit_id": "B002_F01_U0103", "building_id": "B002", "parcel_id": "P002", "floor_id": "B002_F01", "floor_number": 1, "unit_number": 103, "unit_index": 3, "unit_type": "PROPERTY_UNIT", "z_min": 0.0, "z_max": 3.6, "height_m": 3.6, "area_m2": 5280.0, "volume_m3": 19008.0 }, "geometry": { "type": "Polygon", "coordinates": [ [ [ 93.003615208921786, 26.582096869576137 ], [ 93.003615186238974, 26.581374539275359 ], [ 93.002952402095943, 26.581374554558248 ], [ 93.002952420620232, 26.582096884859507 ], [ 93.003615208921786, 26.582096869576137 ] ] ] } },
{ "type": "Feature", "properties": { "unit_id": "B002_F02_U0201", "building_id": "B002", "parcel_id": "P002", "floor_id": "B002_F02", "floor_number": 2, "unit_number": 201, "unit_index": 1, "unit_type": "PROPERTY_UNIT", "z_min": 3.6, "z_max": 7.2, "height_m": 3.6, "area_m2": 7040.0, "volume_m3": 25344.0 }, "geometry": { "type": "Polygon", "coordinates": [ [ [ 93.002952402095943, 26.581374554558248 ], [ 93.002510546000337, 26.581374563033169 ], [ 93.002510577504822, 26.582819223562922 ], [ 93.002952439145233, 26.582819215087472 ], [ 93.002952402095943, 26.581374554558248 ] ] ] } },
{ "type": "Feature", "properties": { "unit_id": "B002_F02_U0202", "building_id": "B002", "parcel_id": "P002", "floor_id": "B002_F02", "floor_number": 2, "unit_number": 202, "unit_index": 2, "unit_type": "PROPERTY_UNIT", "z_min": 3.6, "z_max": 7.2, "height_m": 3.6, "area_m2": 5280.0, "volume_m3": 19008.0 }, "geometry": { "type": "Polygon", "coordinates": [ [ [ 93.002952439145233, 26.582819215087472 ], [ 93.003615231605451, 26.58281919980362 ], [ 93.003615208921786, 26.582096869576137 ], [ 93.002952420620232, 26.582096884859507 ], [ 93.002952439145233, 26.582819215087472 ] ] ] } },
{ "type": "Feature", "properties": { "unit_id": "B002_F02_U0203", "building_id": "B002", "parcel_id": "P002", "floor_id": "B002_F02", "floor_number": 2, "unit_number": 203, "unit_index": 3, "unit_type": "PROPERTY_UNIT", "z_min": 3.6, "z_max": 7.2, "height_m": 3.6, "area_m2": 5280.0, "volume_m3": 19008.0 }, "geometry": { "type": "Polygon", "coordinates": [ [ [ 93.003615208921786, 26.582096869576137 ], [ 93.003615186238974, 26.581374539275359 ], [ 93.002952402095943, 26.581374554558248 ], [ 93.002952420620232, 26.582096884859507 ], [ 93.003615208921786, 26.582096869576137 ] ] ] } },
{ "type": "Feature", "properties": { "unit_id": "B002_F03_U0301", "building_id": "B002", "parcel_id": "P002", "floor_id": "B002_F03", "floor_number": 3, "unit_number": 301, "unit_index": 1, "unit_type": "PROPERTY_UNIT", "z_min": 7.2, "z_max": 10.8, "height_m": 3.6, "area_m2": 7040.0, "volume_m3": 25344.000000000004 }, "geometry": { "type": "Polygon", "coordinates": [ [ [ 93.002952402095943, 26.581374554558248 ], [ 93.002510546000337, 26.581374563033169 ], [ 93.002510577504822, 26.582819223562922 ], [ 93.002952439145233, 26.582819215087472 ], [ 93.002952402095943, 26.581374554558248 ] ] ] } },
{ "type": "Feature", "properties": { "unit_id": "B002_F03_U0302", "building_id": "B002", "parcel_id": "P002", "floor_id": "B002_F03", "floor_number": 3, "unit_number": 302, "unit_index": 2, "unit_type": "PROPERTY_UNIT", "z_min": 7.2, "z_max": 10.8, "height_m": 3.6, "area_m2": 5280.0, "volume_m3": 19008.000000000004 }, "geometry": { "type": "Polygon", "coordinates": [ [ [ 93.002952439145233, 26.582819215087472 ], [ 93.003615231605451, 26.58281919980362 ], [ 93.003615208921786, 26.582096869576137 ], [ 93.002952420620232, 26.582096884859507 ], [ 93.002952439145233, 26.582819215087472 ] ] ] } },
{ "type": "Feature", "properties": { "unit_id": "B002_F03_U0303", "building_id": "B002", "parcel_id": "P002", "floor_id": "B002_F03", "floor_number": 3, "unit_number": 303, "unit_index": 3, "unit_type": "PROPERTY_UNIT", "z_min": 7.2, "z_max": 10.8, "height_m": 3.6, "area_m2": 5280.0, "volume_m3": 19008.000000000004 }, "geometry": { "type": "Polygon", "coordinates": [ [ [ 93.003615208921786, 26.582096869576137 ], [ 93.003615186238974, 26.581374539275359 ], [ 93.002952402095943, 26.581374554558248 ], [ 93.002952420620232, 26.582096884859507 ], [ 93.003615208921786, 26.582096869576137 ] ] ] } },
{ "type": "Feature", "properties": { "unit_id": "B002_F04_U0401", "building_id": "B002", "parcel_id": "P002", "floor_id": "B002_F04", "floor_number": 4, "unit_number": 401, "unit_index": 1, "unit_type": "PROPERTY_UNIT", "z_min": 10.8, "z_max": 14.4, "height_m": 3.6, "area_m2": 7040.0, "volume_m3": 25343.999999999996 }, "geometry": { "type": "Polygon", "coordinates": [ [ [ 93.002952402095943, 26.581374554558248 ], [ 93.002510546000337, 26.581374563033169 ], [ 93.002510577504822, 26.582819223562922 ], [ 93.002952439145233, 26.582819215087472 ], [ 93.002952402095943, 26.581374554558248 ] ] ] } },
{ "type": "Feature", "properties": { "unit_id": "B002_F04_U0402", "building_id": "B002", "parcel_id": "P002", "floor_id": "B002_F04", "floor_number": 4, "unit_number": 402, "unit_index": 2, "unit_type": "PROPERTY_UNIT", "z_min": 10.8, "z_max": 14.4, "height_m": 3.6, "area_m2": 5280.0, "volume_m3": 19007.999999999996 }, "geometry": { "type": "Polygon", "coordinates": [ [ [ 93.002952439145233, 26.582819215087472 ], [ 93.003615231605451, 26.58281919980362 ], [ 93.003615208921786, 26.582096869576137 ], [ 93.002952420620232, 26.582096884859507 ], [ 93.002952439145233, 26.582819215087472 ] ] ] } },
{ "type": "Feature", "properties": { "unit_id": "B002_F04_U0403", "building_id": "B002", "parcel_id": "P002", "floor_id": "B002_F04", "floor_number": 4, "unit_number": 403, "unit_index": 3, "unit_type": "PROPERTY_UNIT", "z_min": 10.8, "z_max": 14.4, "height_m": 3.6, "area_m2": 5280.0, "volume_m3": 19007.999999999996 }, "geometry": { "type": "Polygon", "coordinates": [ [ [ 93.003615208921786, 26.582096869576137 ], [ 93.003615186238974, 26.581374539275359 ], [ 93.002952402095943, 26.581374554558248 ], [ 93.002952420620232, 26.582096884859507 ], [ 93.003615208921786, 26.582096869576137 ] ] ] } },
{ "type": "Feature", "properties": { "unit_id": "B002_F05_U0501", "building_id": "B002", "parcel_id": "P002", "floor_id": "B002_F05", "floor_number": 5, "unit_number": 501, "unit_index": 1, "unit_type": "PROPERTY_UNIT", "z_min": 14.4, "z_max": 18.0, "height_m": 3.6, "area_m2": 7040.0, "volume_m3": 25343.999999999996 }, "geometry": { "type": "Polygon", "coordinates": [ [ [ 93.002952402095943, 26.581374554558248 ], [ 93.002510546000337, 26.581374563033169 ], [ 93.002510577504822, 26.582819223562922 ], [ 93.002952439145233, 26.582819215087472 ], [ 93.002952402095943, 26.581374554558248 ] ] ] } },
{ "type": "Feature", "properties": { "unit_id": "B002_F05_U0502", "building_id": "B002", "parcel_id": "P002", "floor_id": "B002_F05", "floor_number": 5, "unit_number": 502, "unit_index": 2, "unit_type": "PROPERTY_UNIT", "z_min": 14.4, "z_max": 18.0, "height_m": 3.6, "area_m2": 5280.0, "volume_m3": 19007.999999999996 }, "geometry": { "type": "Polygon", "coordinates": [ [ [ 93.002952439145233, 26.582819215087472 ], [ 93.003615231605451, 26.58281919980362 ], [ 93.003615208921786, 26.582096869576137 ], [ 93.002952420620232, 26.582096884859507 ], [ 93.002952439145233, 26.582819215087472 ] ] ] } },
{ "type": "Feature", "properties": { "unit_id": "B002_F05_U0503", "building_id": "B002", "parcel_id": "P002", "floor_id": "B002_F05", "floor_number": 5, "unit_number": 503, "unit_index": 3, "unit_type": "PROPERTY_UNIT", "z_min": 14.4, "z_max": 18.0, "height_m": 3.6, "area_m2": 5280.0, "volume_m3": 19007.999999999996 }, "geometry": { "type": "Polygon", "coordinates": [ [ [ 93.003615208921786, 26.582096869576137 ], [ 93.003615186238974, 26.581374539275359 ], [ 93.002952402095943, 26.581374554558248 ], [ 93.002952420620232, 26.582096884859507 ], [ 93.003615208921786, 26.582096869576137 ] ] ] } },
{ "type": "Feature", "properties": { "unit_id": "B003_F01_U0101", "building_id": "B003", "parcel_id": "P003", "floor_id": "B003_F01", "floor_number": 1, "unit_number": 101, "unit_index": 1, "unit_type": "PROPERTY_UNIT", "z_min": 0.0, "z_max": 4.2, "height_m": 4.2, "area_m2": 7040.0, "volume_m3": 29568.0 }, "geometry": { "type": "Polygon", "coordinates": [ [ [ 93.004860417051475, 26.581374502220267 ], [ 93.004418560957006, 26.581374516615163 ], [ 93.004418616404905, 26.582819177141999 ], [ 93.004860478044165, 26.582819162746201 ], [ 93.004860417051475, 26.581374502220267 ] ] ] } },
{ "type": "Feature", "properties": { "unit_id": "B003_F01_U0102", "building_id": "B003", "parcel_id": "P003", "floor_id": "B003_F01", "floor_number": 1, "unit_number": 102, "unit_index": 2, "unit_type": "PROPERTY_UNIT", "z_min": 0.0, "z_max": 4.2, "height_m": 4.2, "area_m2": 5280.0, "volume_m3": 22176.0 }, "geometry": { "type": "Polygon", "coordinates": [ [ [ 93.004860478044165, 26.582819162746201 ], [ 93.005523270502422, 26.582819138581833 ], [ 93.005523235846823, 26.582096808356262 ], [ 93.004860447547244, 26.582096832519877 ], [ 93.004860478044165, 26.582819162746201 ] ] ] } },
{ "type": "Feature", "properties": { "unit_id": "B003_F01_U0103", "building_id": "B003", "parcel_id": "P003", "floor_id": "B003_F01", "floor_number": 1, "unit_number": 103, "unit_index": 3, "unit_type": "PROPERTY_UNIT", "z_min": 0.0, "z_max": 4.2, "height_m": 4.2, "area_m2": 5280.0, "volume_m3": 22176.0 }, "geometry": { "type": "Polygon", "coordinates": [ [ [ 93.005523235846823, 26.582096808356262 ], [ 93.005523201192531, 26.581374478057413 ], [ 93.004860417051475, 26.581374502220267 ], [ 93.004860447547244, 26.582096832519877 ], [ 93.005523235846823, 26.582096808356262 ] ] ] } },
{ "type": "Feature", "properties": { "unit_id": "B003_F02_U0201", "building_id": "B003", "parcel_id": "P003", "floor_id": "B003_F02", "floor_number": 2, "unit_number": 201, "unit_index": 1, "unit_type": "PROPERTY_UNIT", "z_min": 4.2, "z_max": 8.4, "height_m": 4.2, "area_m2": 7040.0, "volume_m3": 29568.0 }, "geometry": { "type": "Polygon", "coordinates": [ [ [ 93.004860417051475, 26.581374502220267 ], [ 93.004418560957006, 26.581374516615163 ], [ 93.004418616404905, 26.582819177141999 ], [ 93.004860478044165, 26.582819162746201 ], [ 93.004860417051475, 26.581374502220267 ] ] ] } },
{ "type": "Feature", "properties": { "unit_id": "B003_F02_U0202", "building_id": "B003", "parcel_id": "P003", "floor_id": "B003_F02", "floor_number": 2, "unit_number": 202, "unit_index": 2, "unit_type": "PROPERTY_UNIT", "z_min": 4.2, "z_max": 8.4, "height_m": 4.2, "area_m2": 5280.0, "volume_m3": 22176.0 }, "geometry": { "type": "Polygon", "coordinates": [ [ [ 93.004860478044165, 26.582819162746201 ], [ 93.005523270502422, 26.582819138581833 ], [ 93.005523235846823, 26.582096808356262 ], [ 93.004860447547244, 26.582096832519877 ], [ 93.004860478044165, 26.582819162746201 ] ] ] } },
{ "type": "Feature", "properties": { "unit_id": "B003_F02_U0203", "building_id": "B003", "parcel_id": "P003", "floor_id": "B003_F02", "floor_number": 2, "unit_number": 203, "unit_index": 3, "unit_type": "PROPERTY_UNIT", "z_min": 4.2, "z_max": 8.4, "height_m": 4.2, "area_m2": 5280.0, "volume_m3": 22176.0 }, "geometry": { "type": "Polygon", "coordinates": [ [ [ 93.005523235846823, 26.582096808356262 ], [ 93.005523201192531, 26.581374478057413 ], [ 93.004860417051475, 26.581374502220267 ], [ 93.004860447547244, 26.582096832519877 ], [ 93.005523235846823, 26.582096808356262 ] ] ] } },
{ "type": "Feature", "properties": { "unit_id": "B003_F03_U0301", "building_id": "B003", "parcel_id": "P003", "floor_id": "B003_F03", "floor_number": 3, "unit_number": 301, "unit_index": 1, "unit_type": "PROPERTY_UNIT", "z_min": 8.4, "z_max": 12.6, "height_m": 4.2, "area_m2": 7040.0, "volume_m3": 29567.999999999996 }, "geometry": { "type": "Polygon", "coordinates": [ [ [ 93.004860417051475, 26.581374502220267 ], [ 93.004418560957006, 26.581374516615163 ], [ 93.004418616404905, 26.582819177141999 ], [ 93.004860478044165, 26.582819162746201 ], [ 93.004860417051475, 26.581374502220267 ] ] ] } },
{ "type": "Feature", "properties": { "unit_id": "B003_F03_U0302", "building_id": "B003", "parcel_id": "P003", "floor_id": "B003_F03", "floor_number": 3, "unit_number": 302, "unit_index": 2, "unit_type": "PROPERTY_UNIT", "z_min": 8.4, "z_max": 12.6, "height_m": 4.2, "area_m2": 5280.0, "volume_m3": 22175.999999999996 }, "geometry": { "type": "Polygon", "coordinates": [ [ [ 93.004860478044165, 26.582819162746201 ], [ 93.005523270502422, 26.582819138581833 ], [ 93.005523235846823, 26.582096808356262 ], [ 93.004860447547244, 26.582096832519877 ], [ 93.004860478044165, 26.582819162746201 ] ] ] } },
{ "type": "Feature", "properties": { "unit_id": "B003_F03_U0303", "building_id": "B003", "parcel_id": "P003", "floor_id": "B003_F03", "floor_number": 3, "unit_number": 303, "unit_index": 3, "unit_type": "PROPERTY_UNIT", "z_min": 8.4, "z_max": 12.6, "height_m": 4.2, "area_m2": 5280.0, "volume_m3": 22175.999999999996 }, "geometry": { "type": "Polygon", "coordinates": [ [ [ 93.005523235846823, 26.582096808356262 ], [ 93.005523201192531, 26.581374478057413 ], [ 93.004860417051475, 26.581374502220267 ], [ 93.004860447547244, 26.582096832519877 ], [ 93.005523235846823, 26.582096808356262 ] ] ] } },
{ "type": "Feature", "properties": { "unit_id": "B003_F04_U0401", "building_id": "B003", "parcel_id": "P003", "floor_id": "B003_F04", "floor_number": 4, "unit_number": 401, "unit_index": 1, "unit_type": "PROPERTY_UNIT", "z_min": 12.6, "z_max": 16.8, "height_m": 4.2, "area_m2": 7040.0, "volume_m3": 29568.000000000007 }, "geometry": { "type": "Polygon", "coordinates": [ [ [ 93.004860417051475, 26.581374502220267 ], [ 93.004418560957006, 26.581374516615163 ], [ 93.004418616404905, 26.582819177141999 ], [ 93.004860478044165, 26.582819162746201 ], [ 93.004860417051475, 26.581374502220267 ] ] ] } },
{ "type": "Feature", "properties": { "unit_id": "B003_F04_U0402", "building_id": "B003", "parcel_id": "P003", "floor_id": "B003_F04", "floor_number": 4, "unit_number": 402, "unit_index": 2, "unit_type": "PROPERTY_UNIT", "z_min": 12.6, "z_max": 16.8, "height_m": 4.2, "area_m2": 5280.0, "volume_m3": 22176.000000000007 }, "geometry": { "type": "Polygon", "coordinates": [ [ [ 93.004860478044165, 26.582819162746201 ], [ 93.005523270502422, 26.582819138581833 ], [ 93.005523235846823, 26.582096808356262 ], [ 93.004860447547244, 26.582096832519877 ], [ 93.004860478044165, 26.582819162746201 ] ] ] } },
{ "type": "Feature", "properties": { "unit_id": "B003_F04_U0403", "building_id": "B003", "parcel_id": "P003", "floor_id": "B003_F04", "floor_number": 4, "unit_number": 403, "unit_index": 3, "unit_type": "PROPERTY_UNIT", "z_min": 12.6, "z_max": 16.8, "height_m": 4.2, "area_m2": 5280.0, "volume_m3": 22176.000000000007 }, "geometry": { "type": "Polygon", "coordinates": [ [ [ 93.005523235846823, 26.582096808356262 ], [ 93.005523201192531, 26.581374478057413 ], [ 93.004860417051475, 26.581374502220267 ], [ 93.004860447547244, 26.582096832519877 ], [ 93.005523235846823, 26.582096808356262 ] ] ] } },
{ "type": "Feature", "properties": { "unit_id": "B003_F05_U0501", "building_id": "B003", "parcel_id": "P003", "floor_id": "B003_F05", "floor_number": 5, "unit_number": 501, "unit_index": 1, "unit_type": "PROPERTY_UNIT", "z_min": 16.8, "z_max": 21.0, "height_m": 4.2, "area_m2": 7040.0, "volume_m3": 29567.999999999996 }, "geometry": { "type": "Polygon", "coordinates": [ [ [ 93.004860417051475, 26.581374502220267 ], [ 93.004418560957006, 26.581374516615163 ], [ 93.004418616404905, 26.582819177141999 ], [ 93.004860478044165, 26.582819162746201 ], [ 93.004860417051475, 26.581374502220267 ] ] ] } },
{ "type": "Feature", "properties": { "unit_id": "B003_F05_U0502", "building_id": "B003", "parcel_id": "P003", "floor_id": "B003_F05", "floor_number": 5, "unit_number": 502, "unit_index": 2, "unit_type": "PROPERTY_UNIT", "z_min": 16.8, "z_max": 21.0, "height_m": 4.2, "area_m2": 5280.0, "volume_m3": 22175.999999999996 }, "geometry": { "type": "Polygon", "coordinates": [ [ [ 93.004860478044165, 26.582819162746201 ], [ 93.005523270502422, 26.582819138581833 ], [ 93.005523235846823, 26.582096808356262 ], [ 93.004860447547244, 26.582096832519877 ], [ 93.004860478044165, 26.582819162746201 ] ] ] } },
{ "type": "Feature", "properties": { "unit_id": "B003_F05_U0503", "building_id": "B003", "parcel_id": "P003", "floor_id": "B003_F05", "floor_number": 5, "unit_number": 503, "unit_index": 3, "unit_type": "PROPERTY_UNIT", "z_min": 16.8, "z_max": 21.0, "height_m": 4.2, "area_m2": 5280.0, "volume_m3": 22175.999999999996 }, "geometry": { "type": "Polygon", "coordinates": [ [ [ 93.005523235846823, 26.582096808356262 ], [ 93.005523201192531, 26.581374478057413 ], [ 93.004860417051475, 26.581374502220267 ], [ 93.004860447547244, 26.582096832519877 ], [ 93.005523235846823, 26.582096808356262 ] ] ] } }
]
}
