{
"type": "FeatureCollection",
"name": "property_units",
"crs": { "type": "name", "properties": { "name": "urn:ogc:def:crs:EPSG::32646" } },
"features": [
{ "type": "Feature", "properties": { "unit_id": "B001_F01_U0101", "building_id": "B001", "parcel_id": "P001", "floor_id": "B001_F01", "floor_number": 1, "unit_number": 101, "unit_index": 1, "unit_type": "PROPERTY_UNIT", "z_min": 0.0, "z_max": 3.0, "height_m": 3.0, "area_m2": 7040.0, "volume_m3": 21120.0 }, "geometry": { "type": "Polygon", "coordinates": [ [ [ 500104.0, 2940070.0 ], [ 500060.0, 2940070.0 ], [ 500060.0, 2940230.0 ], [ 500104.0, 2940230.0 ], [ 500104.0, 2940070.0 ] ] ] } },
{ "type": "Feature", "properties": { "unit_id": "B001_F01_U0102", "building_id": "B001", "parcel_id": "P001", "floor_id": "B001_F01", "floor_number": 1, "unit_number": 102, "unit_index": 2, "unit_type": "PROPERTY_UNIT", "z_min": 0.0, "z_max": 3.0, "height_m": 3.0, "area_m2": 5280.0, "volume_m3": 15840.0 }, "geometry": { "type": "Polygon", "coordinates": [ [ [ 500104.0, 2940230.0 ], [ 500170.0, 2940230.0 ], [ 500170.0, 2940150.0 ], [ 500104.0, 2940150.0 ], [ 500104.0, 2940230.0 ] ] ] } },
{ "type": "Feature", "properties": { "unit_id": "B001_F01_U0103", "building_id": "B001", "parcel_id": "P001", "floor_id": "B001_F01", "floor_number": 1, "unit_number": 103, "unit_index": 3, "unit_type": "PROPERTY_UNIT", "z_min": 0.0, "z_max": 3.0, "height_m": 3.0, "area_m2": 5280.0, "volume_m3": 15840.0 }, "geometry": { "type": "Polygon", "coordinates": [ [ [ 500170.0, 2940150.0 ], [ 500170.0, 2940070.0 ], [ 500104.0, 2940070.0 ], [ 500104.0, 2940150.0 ], [ 500170.0, 2940150.0 ] ] ] } },
{ "type": "Feature", "properties": { "unit_id": "B001_F02_U0201", "building_id": "B001", "parcel_id": "P001", "floor_id": "B001_F02", "floor_number": 2, "unit_number": 201, "unit_index": 1, "unit_type": "PROPERTY_UNIT", "z_min": 3.0, "z_max": 6.0, "height_m": 3.0, "area_m2": 7040.0, "volume_m3": 21120.0 }, "geometry": { "type": "Polygon", "coordinates": [ [ [ 500104.0, 2940070.0 ], [ 500060.0, 2940070.0 ], [ 500060.0, 2940230.0 ], [ 500104.0, 2940230.0 ], [ 500104.0, 2940070.0 ] ] ] } },
{ "type": "Feature", "properties": { "unit_id": "B001_F02_U0202", "building_id": "B001", "parcel_id": "P001", "floor_id": "B001_F02", "floor_number": 2, "unit_number": 202, "unit_index": 2, "unit_type": "PROPERTY_UNIT", "z_min": 3.0, "z_max": 6.0, "height_m": 3.0, "area_m2": 5280.0, "volume_m3": 15840.0 }, "geometry": { "type": "Polygon", "coordinates": [ [ [ 500104.0, 2940230.0 ], [ 500170.0, 2940230.0 ], [ 500170.0, 2940150.0 ], [ 500104.0, 2940150.0 ], [ 500104.0, 2940230.0 ] ] ] } },
{ "type": "Feature", "properties": { "unit_id": "B001_F02_U0203", "building_id": "B001", "parcel_id": "P001", "floor_id": "B001_F02", "floor_number": 2, "unit_number": 203, "unit_index": 3, "unit_type": "PROPERTY_UNIT", "z_min": 3.0, "z_max": 6.0, "height_m": 3.0, "area_m2": 5280.0, "volume_m3": 15840.0 }, "geometry": { "type": "Polygon", "coordinates": [ [ [ 500170.0, 2940150.0 ], [ 500170.0, 2940070.0 ], [ 500104.0, 2940070.0 ], [ 500104.0, 2940150.0 ], [ 500170.0, 2940150.0 ] ] ] } },
{ "type": "Feature", "properties": { "unit_id": "B001_F03_U0301", "building_id": "B001", "parcel_id": "P001", "floor_id": "B001_F03", "floor_number": 3, "unit_number": 301, "unit_index": 1, "unit_type": "PROPERTY_UNIT", "z_min": 6.0, "z_max": 9.0, "height_m": 3.0, "area_m2": 7040.0, "volume_m3": 21120.0 }, "geometry": { "type": "Polygon", "coordinates": [ [ [ 500104.0, 2940070.0 ], [ 500060.0, 2940070.0 ], [ 500060.0, 2940230.0 ], [ 500104.0, 2940230.0 ], [ 500104.0, 2940070.0 ] ] ] } },
{ "type": "Feature", "properties": { "unit_id": "B001_F03_U0302", "building_id": "B001", "parcel_id": "P001", "floor_id": "B001_F03", "floor_number": 3, "unit_number": 302, "unit_index": 2, "unit_type": "PROPERTY_UNIT", "z_min": 6.0, "z_max": 9.0, "height_m": 3.0, "area_m2": 5280.0, "volume_m3": 15840.0 }, "geometry": { "type": "Polygon", "coordinates": [ [ [ 500104.0, 2940230.0 ], [ 500170.0, 2940230.0 ], [ 500170.0, 2940150.0 ], [ 500104.0, 2940150.0 ], [ 500104.0, 2940230.0 ] ] ] } },
{ "type": "Feature", "properties": { "unit_id": "B001_F03_U0303", "building_id": "B001", "parcel_id": "P001", "floor_id": "B001_F03", "floor_number": 3, "unit_number": 303, "unit_index": 3, "unit_type": "PROPERTY_UNIT", "z_min": 6.0, "z_max": 9.0, "height_m": 3.0, "area_m2": 5280.0, "volume_m3": 15840.0 }, "geometry": { "type": "Polygon", "coordinates": [ [ [ 500170.0, 2940150.0 ], [ 500170.0, 2940070.0 ], [ 500104.0, 2940070.0 ], [ 500104.0, 2940150.0 ], [ 500170.0, 2940150.0 ] ] ] } },
{ "type": "Feature", "properties": { "unit_id": "B001_F04_U0401", "building_id": "B001", "parcel_id": "P001", "floor_id": "B001_F04", "floor_number": 4, "unit_number": 401, "unit_index": 1, "unit_type": "PROPERTY_UNIT", "z_min": 9.0, "z_max": 12.0, "height_m": 3.0, "area_m2": 7040.0, "volume_m3": 21120.0 }, "geometry": { "type": "Polygon", "coordinates": [ [ [ 500104.0, 2940070.0 ], [ 500060.0, 2940070.0 ], [ 500060.0, 2940230.0 ], [ 500104.0, 2940230.0 ], [ 500104.0, 2940070.0 ] ] ] } },
{ "type": "Feature", "properties": { "unit_id": "B001_F04_U0402", "building_id": "B001", "parcel_id": "P001", "floor_id": "B001_F04", "floor_number": 4, "unit_number": 402, "unit_index": 2, "unit_type": "PROPERTY_UNIT", "z_min": 9.0, "z_max": 12.0, "height_m": 3.0, "area_m2": 5280.0, "volume_m3": 15840.0 }, "geometry": { "type": "Polygon", "coordinates": [ [ [ 500104.0, 2940230.0 ], [ 500170.0, 2940230.0 ], [ 500170.0, 2940150.0 ], [ 500104.0, 2940150.0 ], [ 500104.0, 2940230.0 ] ] ] } },
{ "type": "Feature", "properties": { "unit_id": "B001_F04_U0403", "building_id": "B001", "parcel_id": "P001", "floor_id": "B001_F04", "floor_number": 4, "unit_number": 403, "unit_index": 3, "unit_type": "PROPERTY_UNIT", "z_min": 9.0, "z_max": 12.0, "height_m": 3.0, "area_m2": 5280.0, "volume_m3": 15840.0 }, "geometry": { "type": "Polygon", "coordinates": [ [ [ 500170.0, 2940150.0 ], [ 500170.0, 2940070.0 ], [ 500104.0, 2940070.0 ], [ 500104.0, 2940150.0 ], [ 500170.0, 2940150.0 ] ] ] } },
{ "type": "Feature", "properties": { "unit_id": "B001_F05_U0501", "building_id": "B001", "parcel_id": "P001", "floor_id": "B001_F05", "floor_number": 5, "unit_number": 501, "unit_index": 1, "unit_type": "PROPERTY_UNIT", "z_min": 12.0, "z_max": 15.0, "height_m": 3.0, "area_m2": 7040.0, "volume_m3": 21120.0 }, "geometry": { "type": "Polygon", "coordinates": [ [ [ 500104.0, 2940070.0 ], [ 500060.0, 2940070.0 ], [ 500060.0, 2940230.0 ], [ 500104.0, 2940230.0 ], [ 500104.0, 2940070.0 ] ] ] } },
{ "type": "Feature", "properties": { "unit_id": "B001_F05_U0502", "building_id": "B001", "parcel_id": "P001", "floor_id": "B001_F05", "floor_number": 5, "unit_number": 502, "unit_index": 2, "unit_type": "PROPERTY_UNIT", "z_min": 12.0, "z_max": 15.0, "height_m": 3.0, "area_m2": 5280.0, "volume_m3": 15840.0 }, "geometry": { "type": "Polygon", "coordinates": [ [ [ 500104.0, 2940230.0 ], [ 500170.0, 2940230.0 ], [ 500170.0, 2940150.0 ], [ 500104.0, 2940150.0 ], [ 500104.0, 2940230.0 ] ] ] } },
{ "type": "Feature", "properties": { "unit_id": "B001_F05_U0503", "building_id": "B001", "parcel_id": "P001", "floor_id": "B001_F05", "floor_number": 5, "unit_number": 503, "unit_index": 3, "unit_type": "PROPERTY_UNIT", "z_min": 12.0, "z_max": 15.0, "height_m": 3.0, "area_m2": 5280.0, "volume_m3": 15840.0 }, "geometry": { "type": "Polygon", "coordinates": [ [ [ 500170.0, 2940150.0 ], [ 500170.0, 2940070.0 ], [ 500104.0, 2940070.0 ], [ 500104.0, 2940150.0 ], [ 500170.0, 2940150.0 ] ] ] } },
{ "type": "Feature", "properties": { "unit_id": "B002_F01_U0101", "building_id": "B002", "parcel_id": "P002", "floor_id": "B002_F01", "floor_number": 1, "unit_number": 101, "unit_index": 1, "unit_type": "PROPERTY_UNIT", "z_min": 0.0, "z_max": 3.6, "height_m": 3.6, "area_m2": 7040.0, "volume_m3": 25344.0 }, "geometry": { "type": "Polygon", "coordinates": [ [ [ 500294.0, 2940070.0 ], [ 500250.0, 2940070.0 ], [ 500250.0, 2940230.0 ], [ 500294.0, 2940230.0 ], [ 500294.0, 2940070.0 ] ] ] } },
{ "type": "Feature", "properties": { "unit_id": "B002_F01_U0102", "building_id": "B002", "parcel_id": "P002", "floor_id": "B002_F01", "floor_number": 1, "unit_number": 102, "unit_index": 2, "unit_type": "PROPERTY_UNIT", "z_min": 0.0, "z_max": 3.6, "height_m": 3.6, "area_m2": 5280.0, "volume_m3": 19008.0 }, "geometry": { "type": "Polygon", "coordinates": [ [ [ 500294.0, 2940230.0 ], [ 500360.0, 2940230.0 ], [ 500360.0, 2940150.0 ], [ 500294.0, 2940150.0 ], [ 500294.0, 2940230.0 ] ] ] } },
{ "type": "Feature", "properties": { "unit_id": "B002_F01_U0103", "building_id": "B002", "parcel_id": "P002", "floor_id": "B002_F01", "floor_number": 1, "unit_number": 103, "unit_index": 3, "unit_type": "PROPERTY_UNIT", "z_min": 0.0, "z_max": 3.6, "height_m": 3.6, "area_m2": 5280.0, "volume_m3": 19008.0 }, "geometry": { "type": "Polygon", "coordinates": [ [ [ 500360.0, 2940150.0 ], [ 500360.0, 2940070.0 ], [ 500294.0, 2940070.0 ], [ 500294.0, 2940150.0 ], [ 500360.0, 2940150.0 ] ] ] } },
{ "type": "Feature", "properties": { "unit_id": "B002_F02_U0201", "building_id": "B002", "parcel_id": "P002", "floor_id": "B002_F02", "floor_number": 2, "unit_number": 201, "unit_index": 1, "unit_type": "PROPERTY_UNIT", "z_min": 3.6, "z_max": 7.2, "height_m": 3.6, "area_m2": 7040.0, "volume_m3": 25344.0 }, "geometry": { "type": "Polygon", "coordinates": [ [ [ 500294.0, 2940070.0 ], [ 500250.0, 2940070.0 ], [ 500250.0, 2940230.0 ], [ 500294.0, 2940230.0 ], [ 500294.0, 2940070.0 ] ] ] } },
{ "type": "Feature", "properties": { "unit_id": "B002_F02_U0202", "building_id": "B002", "parcel_id": "P002", "floor_id": "B002_F02", "floor_number": 2, "unit_number": 202, "unit_index": 2, "unit_type": "PROPERTY_UNIT", "z_min": 3.6, "z_max": 7.2, "height_m": 3.6, "area_m2": 5280.0, "volume_m3": 19008.0 }, "geometry": { "type": "Polygon", "coordinates": [ [ [ 500294.0, 2940230.0 ], [ 500360.0, 2940230.0 ], [ 500360.0, 2940150.0 ], [ 500294.0, 2940150.0 ], [ 500294.0, 2940230.0 ] ] ] } },
{ "type": "Feature", "properties": { "unit_id": "B002_F02_U0203", "building_id": "B002", "parcel_id": "P002", "floor_id": "B002_F02", "floor_number": 2, "unit_number": 203, "unit_index": 3, "unit_type": "PROPERTY_UNIT", "z_min": 3.6, "z_max": 7.2, "height_m": 3.6, "area_m2": 5280.0, "volume_m3": 19008.0 }, "geometry": { "type": "Polygon", "coordinates": [ [ [ 500360.0, 2940150.0 ], [ 500360.0, 2940070.0 ], [ 500294.0, 2940070.0 ], [ 500294.0, 2940150.0 ], [ 500360.0, 2940150.0 ] ] ] } },
{ "type": "Feature", "properties": { "unit_id": "B002_F03_U0301", "building_id": "B002", "parcel_id": "P002", "floor_id": "B002_F03", "floor_number": 3, "unit_number": 301, "unit_index": 1, "unit_type": "PROPERTY_UNIT", "z_min": 7.2, "z_max": 10.8, "height_m": 3.6, "area_m2": 7040.0, "volume_m3": 25344.000000000004 }, "geometry": { "type": "Polygon", "coordinates": [ [ [ 500294.0, 2940070.0 ], [ 500250.0, 2940070.0 ], [ 500250.0, 2940230.0 ], [ 500294.0, 2940230.0 ], [ 500294.0, 2940070.0 ] ] ] } },
{ "type": "Feature", "properties": { "unit_id": "B002_F03_U0302", "building_id": "B002", "parcel_id": "P002", "floor_id": "B002_F03", "floor_number": 3, "unit_number": 302, "unit_index": 2, "unit_type": "PROPERTY_UNIT", "z_min": 7.2, "z_max": 10.8, "height_m": 3.6, "area_m2": 5280.0, "volume_m3": 19008.000000000004 }, "geometry": { "type": "Polygon", "coordinates": [ [ [ 500294.0, 2940230.0 ], [ 500360.0, 2940230.0 ], [ 500360.0, 2940150.0 ], [ 500294.0, 2940150.0 ], [ 500294.0, 2940230.0 ] ] ] } },
{ "type": "Feature", "properties": { "unit_id": "B002_F03_U0303", "building_id": "B002", "parcel_id": "P002", "floor_id": "B002_F03", "floor_number": 3, "unit_number": 303, "unit_index": 3, "unit_type": "PROPERTY_UNIT", "z_min": 7.2, "z_max": 10.8, "height_m": 3.6, "area_m2": 5280.0, "volume_m3": 19008.000000000004 }, "geometry": { "type": "Polygon", "coordinates": [ [ [ 500360.0, 2940150.0 ], [ 500360.0, 2940070.0 ], [ 500294.0, 2940070.0 ], [ 500294.0, 2940150.0 ], [ 500360.0, 2940150.0 ] ] ] } },
{ "type": "Feature", "properties": { "unit_id": "B002_F04_U0401", "building_id": "B002", "parcel_id": "P002", "floor_id": "B002_F04", "floor_number": 4, "unit_number": 401, "unit_index": 1, "unit_type": "PROPERTY_UNIT", "z_min": 10.8, "z_max": 14.4, "height_m": 3.6, "area_m2": 7040.0, "volume_m3": 25343.999999999996 }, "geometry": { "type": "Polygon", "coordinates": [ [ [ 500294.0, 2940070.0 ], [ 500250.0, 2940070.0 ], [ 500250.0, 2940230.0 ], [ 500294.0, 2940230.0 ], [ 500294.0, 2940070.0 ] ] ] } },
{ "type": "Feature", "properties": { "unit_id": "B002_F04_U0402", "building_id": "B002", "parcel_id": "P002", "floor_id": "B002_F04", "floor_number": 4, "unit_number": 402, "unit_index": 2, "unit_type": "PROPERTY_UNIT", "z_min": 10.8, "z_max": 14.4, "height_m": 3.6, "area_m2": 5280.0, "volume_m3": 19007.999999999996 }, "geometry": { "type": "Polygon", "coordinates": [ [ [ 500294.0, 2940230.0 ], [ 500360.0, 2940230.0 ], [ 500360.0, 2940150.0 ], [ 500294.0, 2940150.0 ], [ 500294.0, 2940230.0 ] ] ] } },
{ "type": "Feature", "properties": { "unit_id": "B002_F04_U0403", "building_id": "B002", "parcel_id": "P002", "floor_id": "B002_F04", "floor_number": 4, "unit_number": 403, "unit_index": 3, "unit_type": "PROPERTY_UNIT", "z_min": 10.8, "z_max": 14.4, "height_m": 3.6, "area_m2": 5280.0, "volume_m3": 19007.999999999996 }, "geometry": { "type": "Polygon", "coordinates": [ [ [ 500360.0, 2940150.0 ], [ 500360.0, 2940070.0 ], [ 500294.0, 2940070.0 ], [ 500294.0, 2940150.0 ], [ 500360.0, 2940150.0 ] ] ] } },
{ "type": "Feature", "properties": { "unit_id": "B002_F05_U0501", "building_id": "B002", "parcel_id": "P002", "floor_id": "B002_F05", "floor_number": 5, "unit_number": 501, "unit_index": 1, "unit_type": "PROPERTY_UNIT", "z_min": 14.4, "z_max": 18.0, "height_m": 3.6, "area_m2": 7040.0, "volume_m3": 25343.999999999996 }, "geometry": { "type": "Polygon", "coordinates": [ [ [ 500294.0, 2940070.0 ], [ 500250.0, 2940070.0 ], [ 500250.0, 2940230.0 ], [ 500294.0, 2940230.0 ], [ 500294.0, 2940070.0 ] ] ] } },
{ "type": "Feature", "properties": { "unit_id": "B002_F05_U0502", "building_id": "B002", "parcel_id": "P002", "floor_id": "B002_F05", "floor_number": 5, "unit_number": 502, "unit_index": 2, "unit_type": "PROPERTY_UNIT", "z_min": 14.4, "z_max": 18.0, "height_m": 3.6, "area_m2": 5280.0, "volume_m3": 19007.999999999996 }, "geometry": { "type": "Polygon", "coordinates": [ [ [ 500294.0, 2940230.0 ], [ 500360.0, 2940230.0 ], [ 500360.0, 2940150.0 ], [ 500294.0, 2940150.0 ], [ 500294.0, 2940230.0 ] ] ] } },
{ "type": "Feature", "properties": { "unit_id": "B002_F05_U0503", "building_id": "B002", "parcel_id": "P002", "floor_id": "B002_F05", "floor_number": 5, "unit_number": 503, "unit_index": 3, "unit_type": "PROPERTY_UNIT", "z_min": 14.4, "z_max": 18.0, "height_m": 3.6, "area_m2": 5280.0, "volume_m3": 19007.999999999996 }, "geometry": { "type": "Polygon", "coordinates": [ [ [ 500360.0, 2940150.0 ], [ 500360.0, 2940070.0 ], [ 500294.0, 2940070.0 ], [ 500294.0, 2940150.0 ], [ 500360.0, 2940150.0 ] ] ] } },
{ "type": "Feature", "properties": { "unit_id": "B003_F01_U0101", "building_id": "B003", "parcel_id": "P003", "floor_id": "B003_F01", "floor_number": 1, "unit_number": 101, "unit_index": 1, "unit_type": "PROPERTY_UNIT", "z_min": 0.0, "z_max": 4.2, "height_m": 4.2, "area_m2": 7040.0, "volume_m3": 29568.0 }, "geometry": { "type": "Polygon", "coordinates": [ [ [ 500484.0, 2940070.0 ], [ 500440.0, 2940070.0 ], [ 500440.0, 2940230.0 ], [ 500484.0, 2940230.0 ], [ 500484.0, 2940070.0 ] ] ] } },
{ "type": "Feature", "properties": { "unit_id": "B003_F01_U0102", "building_id": "B003", "parcel_id": "P003", "floor_id": "B003_F01", "floor_number": 1, "unit_number": 102, "unit_index": 2, "unit_type": "PROPERTY_UNIT", "z_min": 0.0, "z_max": 4.2, "height_m": 4.2, "area_m2": 5280.0, "volume_m3": 22176.0 }, "geometry": { "type": "Polygon", "coordinates": [ [ [ 500484.0, 2940230.0 ], [ 500550.0, 2940230.0 ], [ 500550.0, 2940150.0 ], [ 500484.0, 2940150.0 ], [ 500484.0, 2940230.0 ] ] ] } },
{ "type": "Feature", "properties": { "unit_id": "B003_F01_U0103", "building_id": "B003", "parcel_id": "P003", "floor_id": "B003_F01", "floor_number": 1, "unit_number": 103, "unit_index": 3, "unit_type": "PROPERTY_UNIT", "z_min": 0.0, "z_max": 4.2, "height_m": 4.2, "area_m2": 5280.0, "volume_m3": 22176.0 }, "geometry": { "type": "Polygon", "coordinates": [ [ [ 500550.0, 2940150.0 ], [ 500550.0, 2940070.0 ], [ 500484.0, 2940070.0 ], [ 500484.0, 2940150.0 ], [ 500550.0, 2940150.0 ] ] ] } },
{ "type": "Feature", "properties": { "unit_id": "B003_F02_U0201", "building_id": "B003", "parcel_id": "P003", "floor_id": "B003_F02", "floor_number": 2, "unit_number": 201, "unit_index": 1, "unit_type": "PROPERTY_UNIT", "z_min": 4.2, "z_max": 8.4, "height_m": 4.2, "area_m2": 7040.0, "volume_m3": 29568.0 }, "geometry": { "type": "Polygon", "coordinates": [ [ [ 500484.0, 2940070.0 ], [ 500440.0, 2940070.0 ], [ 500440.0, 2940230.0 ], [ 500484.0, 2940230.0 ], [ 500484.0, 2940070.0 ] ] ] } },
{ "type": "Feature", "properties": { "unit_id": "B003_F02_U0202", "building_id": "B003", "parcel_id": "P003", "floor_id": "B003_F02", "floor_number": 2, "unit_number": 202, "unit_index": 2, "unit_type": "PROPERTY_UNIT", "z_min": 4.2, "z_max": 8.4, "height_m": 4.2, "area_m2": 5280.0, "volume_m3": 22176.0 }, "geometry": { "type": "Polygon", "coordinates": [ [ [ 500484.0, 2940230.0 ], [ 500550.0, 2940230.0 ], [ 500550.0, 2940150.0 ], [ 500484.0, 2940150.0 ], [ 500484.0, 2940230.0 ] ] ] } },
{ "type": "Feature", "properties": { "unit_id": "B003_F02_U0203", "building_id": "B003", "parcel_id": "P003", "floor_id": "B003_F02", "floor_number": 2, "unit_number": 203, "unit_index": 3, "unit_type": "PROPERTY_UNIT", "z_min": 4.2, "z_max": 8.4, "height_m": 4.2, "area_m2": 5280.0, "volume_m3": 22176.0 }, "geometry": { "type": "Polygon", "coordinates": [ [ [ 500550.0, 2940150.0 ], [ 500550.0, 2940070.0 ], [ 500484.0, 2940070.0 ], [ 500484.0, 2940150.0 ], [ 500550.0, 2940150.0 ] ] ] } },
{ "type": "Feature", "properties": { "unit_id": "B003_F03_U0301", "building_id": "B003", "parcel_id": "P003", "floor_id": "B003_F03", "floor_number": 3, "unit_number": 301, "unit_index": 1, "unit_type": "PROPERTY_UNIT", "z_min": 8.4, "z_max": 12.6, "height_m": 4.2, "area_m2": 7040.0, "volume_m3": 29567.999999999996 }, "geometry": { "type": "Polygon", "coordinates": [ [ [ 500484.0, 2940070.0 ], [ 500440.0, 2940070.0 ], [ 500440.0, 2940230.0 ], [ 500484.0, 2940230.0 ], [ 500484.0, 2940070.0 ] ] ] } },
{ "type": "Feature", "properties": { "unit_id": "B003_F03_U0302", "building_id": "B003", "parcel_id": "P003", "floor_id": "B003_F03", "floor_number": 3, "unit_number": 302, "unit_index": 2, "unit_type": "PROPERTY_UNIT", "z_min": 8.4, "z_max": 12.6, "height_m": 4.2, "area_m2": 5280.0, "volume_m3": 22175.999999999996 }, "geometry": { "type": "Polygon", "coordinates": [ [ [ 500484.0, 2940230.0 ], [ 500550.0, 2940230.0 ], [ 500550.0, 2940150.0 ], [ 500484.0, 2940150.0 ], [ 500484.0, 2940230.0 ] ] ] } },
{ "type": "Feature", "properties": { "unit_id": "B003_F03_U0303", "building_id": "B003", "parcel_id": "P003", "floor_id": "B003_F03", "floor_number": 3, "unit_number": 303, "unit_index": 3, "unit_type": "PROPERTY_UNIT", "z_min": 8.4, "z_max": 12.6, "height_m": 4.2, "area_m2": 5280.0, "volume_m3": 22175.999999999996 }, "geometry": { "type": "Polygon", "coordinates": [ [ [ 500550.0, 2940150.0 ], [ 500550.0, 2940070.0 ], [ 500484.0, 2940070.0 ], [ 500484.0, 2940150.0 ], [ 500550.0, 2940150.0 ] ] ] } },
{ "type": "Feature", "properties": { "unit_id": "B003_F04_U0401", "building_id": "B003", "parcel_id": "P003", "floor_id": "B003_F04", "floor_number": 4, "unit_number": 401, "unit_index": 1, "unit_type": "PROPERTY_UNIT", "z_min": 12.6, "z_max": 16.8, "height_m": 4.2, "area_m2": 7040.0, "volume_m3": 29568.000000000007 }, "geometry": { "type": "Polygon", "coordinates": [ [ [ 500484.0, 2940070.0 ], [ 500440.0, 2940070.0 ], [ 500440.0, 2940230.0 ], [ 500484.0, 2940230.0 ], [ 500484.0, 2940070.0 ] ] ] } },
{ "type": "Feature", "properties": { "unit_id": "B003_F04_U0402", "building_id": "B003", "parcel_id": "P003", "floor_id": "B003_F04", "floor_number": 4, "unit_number": 402, "unit_index": 2, "unit_type": "PROPERTY_UNIT", "z_min": 12.6, "z_max": 16.8, "height_m": 4.2, "area_m2": 5280.0, "volume_m3": 22176.000000000007 }, "geometry": { "type": "Polygon", "coordinates": [ [ [ 500484.0, 2940230.0 ], [ 500550.0, 2940230.0 ], [ 500550.0, 2940150.0 ], [ 500484.0, 2940150.0 ], [ 500484.0, 2940230.0 ] ] ] } },
{ "type": "Feature", "properties": { "unit_id": "B003_F04_U0403", "building_id": "B003", "parcel_id": "P003", "floor_id": "B003_F04", "floor_number": 4, "unit_number": 403, "unit_index": 3, "unit_type": "PROPERTY_UNIT", "z_min": 12.6, "z_max": 16.8, "height_m": 4.2, "area_m2": 5280.0, "volume_m3": 22176.000000000007 }, "geometry": { "type": "Polygon", "coordinates": [ [ [ 500550.0, 2940150.0 ], [ 500550.0, 2940070.0 ], [ 500484.0, 2940070.0 ], [ 500484.0, 2940150.0 ], [ 500550.0, 2940150.0 ] ] ] } },
{ "type": "Feature", "properties": { "unit_id": "B003_F05_U0501", "building_id": "B003", "parcel_id": "P003", "floor_id": "B003_F05", "floor_number": 5, "unit_number": 501, "unit_index": 1, "unit_type": "PROPERTY_UNIT", "z_min": 16.8, "z_max": 21.0, "height_m": 4.2, "area_m2": 7040.0, "volume_m3": 29567.999999999996 }, "geometry": { "type": "Polygon", "coordinates": [ [ [ 500484.0, 2940070.0 ], [ 500440.0, 2940070.0 ], [ 500440.0, 2940230.0 ], [ 500484.0, 2940230.0 ], [ 500484.0, 2940070.0 ] ] ] } },
{ "type": "Feature", "properties": { "unit_id": "B003_F05_U0502", "building_id": "B003", "parcel_id": "P003", "floor_id": "B003_F05", "floor_number": 5, "unit_number": 502, "unit_index": 2, "unit_type": "PROPERTY_UNIT", "z_min": 16.8, "z_max": 21.0, "height_m": 4.2, "area_m2": 5280.0, "volume_m3": 22175.999999999996 }, "geometry": { "type": "Polygon", "coordinates": [ [ [ 500484.0, 2940230.0 ], [ 500550.0, 2940230.0 ], [ 500550.0, 2940150.0 ], [ 500484.0, 2940150.0 ], [ 500484.0, 2940230.0 ] ] ] } },
{ "type": "Feature", "properties": { "unit_id": "B003_F05_U0503", "building_id": "B003", "parcel_id": "P003", "floor_id": "B003_F05", "floor_number": 5, "unit_number": 503, "unit_index": 3, "unit_type": "PROPERTY_UNIT", "z_min": 16.8, "z_max": 21.0, "height_m": 4.2, "area_m2": 5280.0, "volume_m3": 22175.999999999996 }, "geometry": { "type": "Polygon", "coordinates": [ [ [ 500550.0, 2940150.0 ], [ 500550.0, 2940070.0 ], [ 500484.0, 2940070.0 ], [ 500484.0, 2940150.0 ], [ 500550.0, 2940150.0 ] ] ] } }
]
}
