{
  "type": "FeatureCollection",
  "name": "dag_546_bhunaksha",
  "crs": {
    "type": "name",
    "properties": {
      "name": "EPSG:32646"
    }
  },
  "features": [
    {
      "type": "Feature",
      "properties": {
        "source": "Assam Bhunaksha",
        "authority": "Government of Assam",
        "dag_no": "546",
        "ulpin": "8456A2E5NVP0H0",
        "location_code": "240103020320001",
        "village": "Chahar Ulubari Block2",
        "mouza": "Ulubari",
        "circle": "Ulubari",
        "district": "Kamrup",
        "area_m2": 2592.6870999147995,
        "textparcel": "546"
      },
      "geometry": {
        "type": "MultiPolygon",
        "coordinates": [
          [
            [
              [376851.0690423633, 2894719.311867972],
              [376853.09555838397, 2894721.6374188056],
              [376856.32489664084, 2894725.561734854],
              [376860.9244733454, 2894720.9866718277],
              [376864.9627608078, 2894716.92725878],
              [376868.75851287943, 2894713.09201049],
              [376872.8753646242, 2894708.877051076],
              [376875.9749647983, 2894705.7428924935],
              [376880.1909243482, 2894701.488954348],
              [376883.63287115825, 2894697.9673813386],
              [376886.99323477026, 2894694.549862695],
              [376886.97543945204, 2894694.5096783075],
              [376885.2468000107, 2894692.365527628],
              [376878.63685888087, 2894684.319076491],
              [376872.42187282845, 2894676.7818166325],
              [376866.5520182097, 2894669.6480389643],
              [376860.34051648574, 2894662.164455385],
              [376854.5581742793, 2894655.1626009094],
              [376849.27281326964, 2894648.9425904755],
              [376848.1711544204, 2894649.9830354485],
              [376843.2872396767, 2894654.856395934],
              [376840.30539937253, 2894657.7489601267],
              [376836.81543592684, 2894661.3466382194],
              [376828.04437736794, 2894670.070801806],
              [376822.4540171613, 2894675.697578256],
              [376818.10448702285, 2894679.979911404],
              [376817.9413714545, 2894680.1272627497],
              [376820.40578143334, 2894682.8536407743],
              [376823.62883282104, 2894686.5101198745],
              [376826.69199435425, 2894690.1511125453],
              [376829.35676425346, 2894693.3280132874],
              [376832.7130169126, 2894697.210709923],
              [376835.7625222519, 2894700.9308483615],
              [376839.2114448664, 2894705.1109302863],
              [376842.53380103747, 2894708.946439432],
              [376845.42459953646, 2894712.3705824106],
              [376849.24197359034, 2894717.016884801],
              [376850.69862596795, 2894718.886769189],
              [376851.0690423633, 2894719.311867972]
            ]
          ]
        ]
      }
    }
  ]
}