{
"type": "FeatureCollection",
"name": "adtu_buildings_4326",
"crs": { "type": "name", "properties": { "name": "urn:ogc:def:crs:OGC:1.3:CRS84" } },
"features": [
{ "type": "Feature", "properties": { "id": "way/724688433", "@id": "way/724688433", "addr:city": "Guwahati", "addr:district": null, "addr:housename": null, "addr:housenumber": null, "addr:postcode": null, "addr:street": "Panikheti", "air_conditioning": null, "architect": null, "building": "yes", "building:flats": null, "building:levels": "5", "building:levels:underground": null, "building:material": null, "description": null, "designation": null, "emergency": null, "government": null, "healthcare:speciality": null, "height": "17", "image": null, "internet_access": null, "man_made": null, "name": "Assam Down Town University Academic Building", "name:as": null, "nohousenumber": null, "office": null, "operator": null, "roof:levels": null, "roof:shape": null, "shop": null, "smoking": null, "source": null, "stars": null, "tourism": null, "tower:construction": null, "tower:type": null, "wikidata": null, "Height_m": 17.0, "Building_ID": "ADTU-BLD-0093", "id_2": 12, "study_area_id": 1, "parcel_number": "19", "parcel_code": "CDQU85AG69FMH0", "area": 671.85359441646847, "land_use": "INSTITUTIONAL", "status": "ACTIVE", "floor_count": 5 }, "geometry": { "type": "Polygon", "coordinates": [ [ [ 91.8620179, 26.2017521 ], [ 91.8619386, 26.20166 ], [ 91.8618499, 26.2015763 ], [ 91.8621998, 26.2013251 ], [ 91.8627877, 26.2019154 ], [ 91.8624238, 26.2021372 ], [ 91.8622698, 26.2019824 ], [ 91.8620179, 26.2017521 ] ] ] } }
]
}
