{
"type": "FeatureCollection",
"name": "adtu_parcels_4326",
"crs": { "type": "name", "properties": { "name": "urn:ogc:def:crs:OGC:1.3:CRS84" } },
"features": [
{ "type": "Feature", "properties": { "id": 1, "study_area_id": 1, "parcel_number": "4", "parcel_code": "CDQUZZAG6AB7H0", "area": 1715.3708319058148, "land_use": "INSTITUTIONAL", "status": "ACTIVE" }, "geometry": { "type": "Polygon", "coordinates": [ [ [ 91.863137833369535, 26.202196316364361 ], [ 91.863001170360931, 26.202168660567498 ], [ 91.86274955078494, 26.20218015838341 ], [ 91.862638674331549, 26.202186699447807 ], [ 91.862570754360831, 26.202192719917797 ], [ 91.862590234924895, 26.202461259457117 ], [ 91.862609741874451, 26.202609590541623 ], [ 91.862740716480005, 26.202523740213714 ], [ 91.86293400360114, 26.202399755974604 ], [ 91.863070079843865, 26.202323423614711 ], [ 91.863168330381114, 26.202275256389008 ], [ 91.86328596145222, 26.202230265919294 ], [ 91.863137833369535, 26.202196316364361 ] ] ] } },
{ "type": "Feature", "properties": { "id": 2, "study_area_id": 1, "parcel_number": "5", "parcel_code": "CDQUA1AG6A30H0", "area": 726.11488918524458, "land_use": "INSTITUTIONAL", "status": "ACTIVE" }, "geometry": { "type": "Polygon", "coordinates": [ [ [ 91.862453702035523, 26.202203537393423 ], [ 91.8624578969483, 26.202177071489203 ], [ 91.862494470549265, 26.20199598683978 ], [ 91.862363207407284, 26.202003609146505 ], [ 91.86218893100353, 26.202015108487306 ], [ 91.862138049092351, 26.202220391689703 ], [ 91.862135426649914, 26.202235918196642 ], [ 91.862148110482551, 26.202234020956588 ], [ 91.862453702035523, 26.202203537393423 ] ] ] } },
{ "type": "Feature", "properties": { "id": 3, "study_area_id": 1, "parcel_number": "6", "parcel_code": "CDQUJ7AG6A2NH0", "area": 624.28831196635394, "land_use": "INSTITUTIONAL", "status": "ACTIVE" }, "geometry": { "type": "Polygon", "coordinates": [ [ [ 91.862453702035523, 26.202203537393423 ], [ 91.862570756503075, 26.202192718015255 ], [ 91.862638676736637, 26.202186697293183 ], [ 91.862749553709421, 26.202180155755279 ], [ 91.862761857950971, 26.2019818916622 ], [ 91.862494470549265, 26.20199598683978 ], [ 91.8624578969483, 26.202177071489203 ], [ 91.862453702035523, 26.202203537393423 ] ] ] } },
{ "type": "Feature", "properties": { "id": 4, "study_area_id": 1, "parcel_number": "7", "parcel_code": "CDQUSRAG6A1VH0", "area": 761.79476707747108, "land_use": "INSTITUTIONAL", "status": "ACTIVE" }, "geometry": { "type": "Polygon", "coordinates": [ [ [ 91.862749553709421, 26.202180155755279 ], [ 91.863001174849686, 26.20216865648824 ], [ 91.863137839480558, 26.202196310610145 ], [ 91.863098416678881, 26.2021010575513 ], [ 91.863081000115798, 26.202029386441442 ], [ 91.863070794340047, 26.201965724210382 ], [ 91.862894386397215, 26.201975704171801 ], [ 91.862761857950971, 26.2019818916622 ], [ 91.862749553709421, 26.202180155755279 ] ] ] } },
{ "type": "Feature", "properties": { "id": 5, "study_area_id": 1, "parcel_number": "8", "parcel_code": "CDQV8ZAG6A10H0", "area": 908.49844781207628, "land_use": "INSTITUTIONAL", "status": "ACTIVE" }, "geometry": { "type": "Polygon", "coordinates": [ [ [ 91.863413811901935, 26.201882200560124 ], [ 91.863113054874262, 26.201902825188657 ], [ 91.863109849154853, 26.201956589801021 ], [ 91.863143778810979, 26.202058157713484 ], [ 91.863167448291108, 26.20214276719927 ], [ 91.863235657594799, 26.202168464539792 ], [ 91.863406622183419, 26.20219535795782 ], [ 91.863440329173841, 26.202185529737996 ], [ 91.863422604856737, 26.202007825823742 ], [ 91.863413811901935, 26.201882200560124 ] ] ] } },
{ "type": "Feature", "properties": { "id": 6, "study_area_id": 1, "parcel_number": "9", "parcel_code": "CDQVK6AG6A0ZH0", "area": 926.85776974237695, "land_use": "INSTITUTIONAL", "status": "ACTIVE" }, "geometry": { "type": "Polygon", "coordinates": [ [ [ 91.86345321876874, 26.201877580082598 ], [ 91.863454927015297, 26.201983767010177 ], [ 91.863482518197102, 26.202176415173458 ], [ 91.863546464136164, 26.202169334109154 ], [ 91.863637074621366, 26.202157989430553 ], [ 91.863729200121483, 26.202136181830078 ], [ 91.863844175931661, 26.202064550505881 ], [ 91.86380812609211, 26.20193964593523 ], [ 91.863721367066304, 26.201933940614058 ], [ 91.86345321876874, 26.201877580082598 ] ] ] } },
{ "type": "Feature", "properties": { "id": 7, "study_area_id": 1, "parcel_number": "11", "parcel_code": "CDQUUDAG69RBH0", "area": 404.58858684552837, "land_use": "INSTITUTIONAL", "status": "ACTIVE" }, "geometry": { "type": "Polygon", "coordinates": [ [ [ 91.862894386397215, 26.201975704171801 ], [ 91.863070794340047, 26.201965724210382 ], [ 91.863060611901616, 26.20190272889338 ], [ 91.863064801280458, 26.201755220925932 ], [ 91.862877211374837, 26.201776215582562 ], [ 91.862883883831969, 26.201847892419018 ], [ 91.862894386397215, 26.201975704171801 ] ] ] } },
{ "type": "Feature", "properties": { "id": 8, "study_area_id": 1, "parcel_number": "15", "parcel_code": "CDQV85AG69ZZH0", "area": 594.29904116947762, "land_use": "INSTITUTIONAL", "status": "ACTIVE" }, "geometry": { "type": "Polygon", "coordinates": [ [ [ 91.863195940519788, 26.201711158777417 ], [ 91.863130953854494, 26.201718859437719 ], [ 91.863121707640929, 26.201777622784356 ], [ 91.863115183971146, 26.20187276543702 ], [ 91.863113054874262, 26.201902825188657 ], [ 91.863413811901935, 26.201882200560124 ], [ 91.863401305804686, 26.201807589898209 ], [ 91.863402124598153, 26.201686823309441 ], [ 91.863195940519788, 26.201711158777417 ] ] ] } },
{ "type": "Feature", "properties": { "id": 9, "study_area_id": 1, "parcel_number": "16", "parcel_code": "CDQV9HAG69JTH0", "area": 264.4599640641618, "land_use": "INSTITUTIONAL", "status": "ACTIVE" }, "geometry": { "type": "Polygon", "coordinates": [ [ [ 91.863213485751231, 26.20158730541948 ], [ 91.863195940519788, 26.201711158777417 ], [ 91.863402124598153, 26.201686823309441 ], [ 91.863407902334615, 26.201569644884376 ], [ 91.863213485751231, 26.20158730541948 ] ] ] } },
{ "type": "Feature", "properties": { "id": 10, "study_area_id": 1, "parcel_number": "17", "parcel_code": "CDQVA1AG69F1H0", "area": 427.0499673249617, "land_use": "INSTITUTIONAL", "status": "ACTIVE" }, "geometry": { "type": "Polygon", "coordinates": [ [ [ 91.863237638041241, 26.201394083284221 ], [ 91.863204921078037, 26.201587347908024 ], [ 91.863213491646874, 26.201587307665321 ], [ 91.863407911612001, 26.201569648429498 ], [ 91.863433630779824, 26.201382641052561 ], [ 91.863439337089758, 26.201372019500059 ], [ 91.863237638041241, 26.201394083284221 ] ] ] } },
{ "type": "Feature", "properties": { "id": 11, "study_area_id": 1, "parcel_number": "18", "parcel_code": "CDQV14AG69FVH0", "area": 1291.8842776267195, "land_use": "INSTITUTIONAL", "status": "ACTIVE" }, "geometry": { "type": "Polygon", "coordinates": [ [ [ 91.863195955401096, 26.201711164565253 ], [ 91.863213491646874, 26.201587307665321 ], [ 91.863204921078037, 26.201587347908024 ], [ 91.863237638041241, 26.201394083284221 ], [ 91.862849521210407, 26.201435250213738 ], [ 91.862877219339438, 26.201776218659472 ], [ 91.863064814811963, 26.201755226193814 ], [ 91.863097088030017, 26.20172565796171 ], [ 91.863130967206146, 26.20171886485921 ], [ 91.863195955401096, 26.201711164565253 ] ] ] } },
{ "type": "Feature", "properties": { "id": 12, "study_area_id": 1, "parcel_number": "19", "parcel_code": "CDQU85AG69FMH0", "area": 671.85359441646847, "land_use": "INSTITUTIONAL", "status": "ACTIVE" }, "geometry": { "type": "Polygon", "coordinates": [ [ [ 91.862433686492153, 26.201569836132794 ], [ 91.862465602741949, 26.201400604583576 ], [ 91.862186310525615, 26.201427184410818 ], [ 91.862086478165665, 26.201435418341525 ], [ 91.862063017084026, 26.201595431884702 ], [ 91.862433686492153, 26.201569836132794 ] ] ] } },
{ "type": "Feature", "properties": { "id": 13, "study_area_id": 1, "parcel_number": "20", "parcel_code": "CDQUHGAG69FLH0", "area": 435.07222469944315, "land_use": "INSTITUTIONAL", "status": "ACTIVE" }, "geometry": { "type": "Polygon", "coordinates": [ [ [ 91.862465602741949, 26.201400604583576 ], [ 91.862433686492153, 26.201569836132794 ], [ 91.862664726816263, 26.20155369296176 ], [ 91.862685516070485, 26.201450896048044 ], [ 91.862690000230486, 26.201408279944683 ], [ 91.862697700070228, 26.201378667786027 ], [ 91.862599121105305, 26.20138763245248 ], [ 91.862465602741949, 26.201400604583576 ] ] ] } },
{ "type": "Feature", "properties": { "id": 14, "study_area_id": 1, "parcel_number": "21", "parcel_code": "CDQUNRAG69CAH0", "area": 110.22419335199257, "land_use": "INSTITUTIONAL", "status": "ACTIVE" }, "geometry": { "type": "Polygon", "coordinates": [ [ [ 91.862697700070228, 26.201378667786027 ], [ 91.862690000230486, 26.201408279944683 ], [ 91.862685516070485, 26.201450896048044 ], [ 91.862821460263547, 26.2014379391013 ], [ 91.862840043255176, 26.201365541116083 ], [ 91.862697700070228, 26.201378667786027 ] ] ] } },
{ "type": "Feature", "properties": { "id": 15, "study_area_id": 1, "parcel_number": "22", "parcel_code": "CDQV4SAG699DH0", "area": 1139.9977854813555, "land_use": "INSTITUTIONAL", "status": "ACTIVE" }, "geometry": { "type": "Polygon", "coordinates": [ [ [ 91.863237638041241, 26.201394083284221 ], [ 91.863439337089758, 26.201372019500059 ], [ 91.863452077340582, 26.201348227327735 ], [ 91.86347532452352, 26.201212471360673 ], [ 91.863344332453437, 26.201224044924057 ], [ 91.863010215549238, 26.201245460498143 ], [ 91.862942824198285, 26.201250146717342 ], [ 91.862863918381805, 26.201255554498857 ], [ 91.862840043255176, 26.201365541116083 ], [ 91.862821460263547, 26.2014379391013 ], [ 91.862849521210407, 26.201435250213738 ], [ 91.863237638041241, 26.201394083284221 ] ] ] } },
{ "type": "Feature", "properties": { "id": 16, "study_area_id": 1, "parcel_number": "24", "parcel_code": "CDQV6LAG6942H0", "area": 1289.8243362882965, "land_use": "INSTITUTIONAL", "status": "ACTIVE" }, "geometry": { "type": "Polygon", "coordinates": [ [ [ 91.862942824198285, 26.201250146717342 ], [ 91.863010215549238, 26.201245460498143 ], [ 91.863344332453437, 26.201224044924057 ], [ 91.86347532452352, 26.201212471360673 ], [ 91.863479038186867, 26.20101670013937 ], [ 91.863472821166937, 26.200975155062967 ], [ 91.862954353414608, 26.201047684827568 ], [ 91.862942824198285, 26.201250146717342 ] ] ] } },
{ "type": "Feature", "properties": { "id": 17, "study_area_id": 1, "parcel_number": "25", "parcel_code": "CDQV51AG68T3H0", "area": 1703.6380938565712, "land_use": "INSTITUTIONAL", "status": "ACTIVE" }, "geometry": { "type": "Polygon", "coordinates": [ [ [ 91.862954352600013, 26.201047684191664 ], [ 91.863472820461723, 26.200975155030996 ], [ 91.863492670910745, 26.200791615148045 ], [ 91.863326138503069, 26.20077331305583 ], [ 91.862835644541931, 26.200776452654729 ], [ 91.862839116398774, 26.200888654757836 ], [ 91.86286336197854, 26.201059647540664 ], [ 91.862954352600013, 26.201047684191664 ] ] ] } },
{ "type": "Feature", "properties": { "id": 18, "study_area_id": 1, "parcel_number": "26", "parcel_code": "CDQV53AG68K9H0", "area": 2180.5596515262782, "land_use": "INSTITUTIONAL", "status": "ACTIVE" }, "geometry": { "type": "Polygon", "coordinates": [ [ [ 91.86283563952145, 26.200776448893816 ], [ 91.863326136961462, 26.200773312410675 ], [ 91.863492669951029, 26.200791614790869 ], [ 91.863513469045941, 26.200777719596047 ], [ 91.863449177478159, 26.200456312150891 ], [ 91.863058948840447, 26.200461364074318 ], [ 91.862840679022113, 26.200525360102123 ], [ 91.86283563952145, 26.200776448893816 ] ] ] } },
{ "type": "Feature", "properties": { "id": 19, "study_area_id": 1, "parcel_number": "27", "parcel_code": "CDQVGRAG69CJH0", "area": 145.84364879104564, "land_use": "INSTITUTIONAL", "status": "ACTIVE" }, "geometry": { "type": "Polygon", "coordinates": [ [ [ 91.863456082184712, 26.201473859979554 ], [ 91.863596652506857, 26.201459137329472 ], [ 91.863618479751153, 26.201368326756171 ], [ 91.863490528867928, 26.201377515913229 ], [ 91.863476761574148, 26.20137785066386 ], [ 91.863456082184712, 26.201473859979554 ] ] ] } },
{ "type": "Feature", "properties": { "id": 20, "study_area_id": 1, "parcel_number": "28", "parcel_code": "CDQVY3AG69GYH0", "area": 504.8232273858215, "land_use": "INSTITUTIONAL", "status": "ACTIVE" }, "geometry": { "type": "Polygon", "coordinates": [ [ [ 91.863456077608461, 26.201473858258421 ], [ 91.863447155560038, 26.201584976536541 ], [ 91.863442795248346, 26.201646433600356 ], [ 91.863698358487667, 26.201632066556456 ], [ 91.863714530379113, 26.201448767184246 ], [ 91.863596646529189, 26.201459135081709 ], [ 91.863456077608461, 26.201473858258421 ] ] ] } }
]
}
