{
  "type": "FeatureCollection",
  "features": [
    {
      "type": "Feature",
      "properties": {
        "name": "ADTU Prototype Study Area",
        "description": "Prototype study-area boundary derived as the convex hull of the supplied ADTU parcel geometries."
      },
      "geometry": {
        "type": "Polygon",
        "coordinates": [
          [
            [
              91.86344917747816,
              26.20045631215089
            ],
            [
              91.86305894884045,
              26.200461364074318
            ],
            [
              91.86284067902211,
              26.200525360102123
            ],
            [
              91.86208647816566,
              26.201435418341525
            ],
            [
              91.86206301708403,
              26.2015954318847
            ],
            [
              91.86213542664991,
              26.202235918196642
            ],
            [
              91.86260974187445,
              26.202609590541623
            ],
            [
              91.86372920012148,
              26.202136181830078
            ],
            [
              91.86384417593166,
              26.20206455050588
            ],
            [
              91.86371453037911,
              26.201448767184246
            ],
            [
              91.86344917747816,
              26.20045631215089
            ]
          ]
        ]
      }
    }
  ]
}